{"type":"FeatureCollection","features":[{"type":"Feature","properties":{"code":"N40","name":"Kota Anggerik","parlimen":"P.108 Shah Alam"},"geometry":{"type":"Polygon","coordinates":[[[101.525428,3.127691],[101.525556,3.136153],[101.525237,3.137268],[101.525397,3.138862],[101.524281,3.140934],[101.524189,3.148287],[101.522075,3.154628],[101.52433,3.15787],[101.52898,3.157588],[101.528416,3.159561],[101.525598,3.159561],[101.52588,3.161393],[101.528698,3.161393],[101.528458,3.18133],[101.528416,3.184785],[101.514747,3.181685],[101.513902,3.176894],[101.498682,3.176753],[101.498667,3.169829],[101.476049,3.170835],[101.472782,3.167065],[101.472908,3.160405],[101.470018,3.158395],[101.469766,3.155756],[101.471903,3.152741],[101.471149,3.15073],[101.471149,3.144824],[101.47052,3.143945],[101.470646,3.142563],[101.470269,3.139296],[101.470143,3.134521],[101.454437,3.134646],[101.454185,3.119819],[101.451798,3.119819],[101.452426,3.114416],[101.449159,3.113788],[101.449034,3.112532],[101.443756,3.11228],[101.443756,3.110647],[101.44126,3.109324],[101.441128,3.104172],[101.442713,3.09268],[101.448393,3.073263],[101.450771,3.074056],[101.454205,3.068112],[101.45645,3.066923],[101.466225,3.066262],[101.471905,3.064941],[101.473932,3.058768],[101.488285,3.063381],[101.490051,3.063381],[101.489941,3.052231],[101.498,3.052121],[101.502747,3.051569],[101.508156,3.051679],[101.513676,3.053225],[101.537963,3.060732],[101.542489,3.061725],[101.547457,3.065699],[101.549555,3.070336],[101.556313,3.075594],[101.553763,3.084041],[101.553763,3.093443],[101.549301,3.092965],[101.545795,3.102686],[101.533843,3.108901],[101.530974,3.11432],[101.528584,3.121969],[101.525397,3.125635],[101.525428,3.127691]]]}},{"type":"Feature","properties":{"code":"N41","name":"Batu Tiga","parlimen":"P.108 Shah Alam"},"geometry":{"type":"Polygon","coordinates":[[[101.572102,3.082029],[101.566513,3.078782],[101.556313,3.075594],[101.549555,3.070336],[101.547457,3.065699],[101.542489,3.061725],[101.537963,3.060732],[101.513676,3.053225],[101.508156,3.051679],[101.502747,3.051569],[101.498,3.052121],[101.489941,3.052231],[101.490051,3.063381],[101.488285,3.063381],[101.473932,3.058768],[101.474811,3.056091],[101.473622,3.054506],[101.470188,3.053317],[101.466754,3.053582],[101.466225,3.053317],[101.466225,3.051468],[101.464772,3.048826],[101.460677,3.046713],[101.452752,3.046581],[101.452037,3.045379],[101.453603,3.041382],[101.455125,3.039267],[101.456986,3.038675],[101.462568,3.037745],[101.46409,3.039267],[101.46409,3.044595],[101.466542,3.048147],[101.468779,3.048052],[101.4721,3.051788],[101.472792,3.051511],[101.473345,3.047084],[101.475974,3.048882],[101.479156,3.047222],[101.481923,3.048329],[101.483444,3.048191],[101.487872,3.045285],[101.490777,3.044732],[101.495066,3.047222],[101.496726,3.046945],[101.496726,3.045839],[101.494236,3.041135],[101.495619,3.040305],[101.507656,3.040166],[101.508763,3.043625],[101.509454,3.043625],[101.513881,3.033941],[101.513881,3.032004],[101.518447,3.029237],[101.520522,3.033249],[101.520522,3.035877],[101.522321,3.035877],[101.523151,3.028268],[101.523711,3.028268],[101.524258,3.028268],[101.524534,3.035186],[101.527025,3.035877],[101.526333,3.037953],[101.526471,3.038921],[101.531314,3.039475],[101.533804,3.038229],[101.536432,3.038921],[101.540445,3.045009],[101.544457,3.04653],[101.546255,3.03906],[101.546947,3.03906],[101.548331,3.042242],[101.571282,3.038319],[101.567414,3.046757],[101.56425,3.050624],[101.568235,3.054374],[101.568352,3.056014],[101.567532,3.057889],[101.567532,3.06035],[101.569875,3.062342],[101.57175,3.063397],[101.572102,3.082029]]]}},{"type":"Feature","properties":{"code":"N42","name":"Meru","parlimen":"P.109 Kapar"},"geometry":{"type":"Polygon","coordinates":[[[101.431888,3.193042],[101.432194,3.190462],[101.432081,3.18899],[101.435252,3.160228],[101.432421,3.159661],[101.433327,3.15366],[101.430383,3.15366],[101.430383,3.156604],[101.414529,3.156264],[101.414076,3.15751],[101.408754,3.157736],[101.408414,3.154452],[101.402526,3.154566],[101.402186,3.136561],[101.378067,3.1369],[101.377953,3.139845],[101.383615,3.14528],[101.383502,3.14596],[101.370253,3.150829],[101.366969,3.140524],[101.374783,3.13792],[101.374783,3.131692],[101.370706,3.127162],[101.367649,3.124218],[101.366403,3.118443],[101.366177,3.112441],[101.364138,3.111195],[101.365366,3.100739],[101.3667,3.098],[101.376953,3.094489],[101.377726,3.096104],[101.378779,3.096385],[101.385943,3.093786],[101.391889,3.090566],[101.393096,3.09298],[101.422217,3.093282],[101.422107,3.111965],[101.422635,3.112494],[101.44126,3.109324],[101.443756,3.110647],[101.443756,3.11228],[101.449034,3.112532],[101.449159,3.113788],[101.452426,3.114416],[101.451798,3.119819],[101.454185,3.119819],[101.454437,3.134646],[101.470143,3.134521],[101.470269,3.139296],[101.470646,3.142563],[101.47052,3.143945],[101.471149,3.144824],[101.471149,3.15073],[101.471903,3.152741],[101.469766,3.155756],[101.470018,3.158395],[101.472908,3.160405],[101.472782,3.167065],[101.476049,3.170835],[101.498667,3.169829],[101.498682,3.176753],[101.498682,3.182672],[101.493186,3.183517],[101.4891,3.186899],[101.48924,3.189013],[101.487972,3.192254],[101.48459,3.191972],[101.483463,3.193522],[101.479658,3.191831],[101.47388,3.191831],[101.468384,3.194227],[101.46627,3.192818],[101.431888,3.193042]]]}},{"type":"Feature","properties":{"code":"N43","name":"Sementa","parlimen":"P.109 Kapar"},"geometry":{"type":"Polygon","coordinates":[[[101.306914,3.164329],[101.307108,3.163782],[101.306985,3.163319],[101.308169,3.156973],[101.308301,3.156767],[101.308354,3.156055],[101.308559,3.154882],[101.309136,3.154429],[101.308783,3.154044],[101.308904,3.153789],[101.308833,3.153413],[101.309553,3.149556],[101.309805,3.149791],[101.310142,3.149311],[101.31028,3.148588],[101.3105,3.147959],[101.310489,3.147517],[101.310611,3.147013],[101.310521,3.146736],[101.310913,3.145199],[101.31082,3.144681],[101.311111,3.143861],[101.31131,3.14241],[101.311443,3.142182],[101.311869,3.142028],[101.312002,3.141349],[101.311777,3.141046],[101.31164,3.140179],[101.312002,3.13964],[101.312069,3.139362],[101.311924,3.138749],[101.311975,3.138133],[101.312203,3.137251],[101.312796,3.137029],[101.312478,3.136631],[101.312532,3.136302],[101.312858,3.136074],[101.312876,3.1358],[101.312707,3.135104],[101.31278,3.13422],[101.313012,3.133385],[101.313229,3.133147],[101.313173,3.132677],[101.313477,3.132111],[101.313563,3.131536],[101.313925,3.130822],[101.313877,3.130383],[101.314203,3.130371],[101.314374,3.130153],[101.31444,3.129187],[101.314299,3.128938],[101.313668,3.128937],[101.313456,3.128646],[101.314236,3.124466],[101.315266,3.12231],[101.3158,3.120802],[101.315918,3.119801],[101.316141,3.11951],[101.316014,3.11916],[101.316846,3.118406],[101.316787,3.117441],[101.316845,3.116243],[101.316822,3.115341],[101.317122,3.114516],[101.317246,3.113938],[101.316872,3.11317],[101.317093,3.112446],[101.317404,3.111998],[101.317715,3.111755],[101.318061,3.111899],[101.318302,3.111784],[101.318589,3.111318],[101.319045,3.11105],[101.319407,3.110978],[101.320804,3.111081],[101.320761,3.111565],[101.321139,3.111882],[101.321654,3.111206],[101.322177,3.110799],[101.322951,3.110745],[101.323922,3.110829],[101.324594,3.111203],[101.32487,3.111222],[101.325366,3.111024],[101.325624,3.111267],[101.326067,3.110639],[101.326979,3.110323],[101.327344,3.11037],[101.328176,3.110161],[101.329419,3.109284],[101.329363,3.108059],[101.329534,3.106963],[101.330067,3.106209],[101.331582,3.105115],[101.332424,3.104084],[101.332676,3.103881],[101.333878,3.103291],[101.335198,3.102271],[101.336056,3.101658],[101.336657,3.101119],[101.338977,3.098827],[101.340101,3.097525],[101.343711,3.093218],[101.344808,3.091796],[101.345296,3.091218],[101.345771,3.090387],[101.346782,3.089131],[101.347482,3.088095],[101.348158,3.087232],[101.349075,3.086349],[101.350237,3.085033],[101.350843,3.084045],[101.351232,3.083512],[101.35256,3.081975],[101.353536,3.080668],[101.354861,3.079185],[101.355054,3.079053],[101.3556,3.078351],[101.355758,3.078009],[101.356792,3.076932],[101.35712,3.076429],[101.357022,3.075926],[101.357167,3.075764],[101.35799,3.075639],[101.358293,3.075465],[101.358436,3.074605],[101.359063,3.074027],[101.359626,3.073638],[101.359343,3.073152],[101.359545,3.072838],[101.360506,3.071668],[101.361361,3.07055],[101.36187,3.07019],[101.362029,3.069411],[101.362165,3.066617],[101.36214,3.065803],[101.362315,3.065125],[101.362768,3.064504],[101.36279,3.063553],[101.36261,3.062305],[101.36235,3.06009],[101.36214,3.057904],[101.361982,3.057104],[101.361918,3.056271],[101.361926,3.055416],[101.361845,3.054953],[101.361137,3.05244],[101.360553,3.051549],[101.360525,3.051207],[101.363013,3.048377],[101.370641,3.048295],[101.372528,3.04526],[101.378516,3.04567],[101.379336,3.044603],[101.383192,3.044931],[101.384914,3.042307],[101.384832,3.040666],[101.386391,3.038697],[101.387539,3.038451],[101.388441,3.036729],[101.390328,3.037057],[101.390656,3.040092],[101.391969,3.041732],[101.394922,3.043045],[101.397628,3.04165],[101.401812,3.04083],[101.404437,3.043127],[101.408292,3.046326],[101.412804,3.047228],[101.415264,3.048459],[101.417971,3.051576],[101.419858,3.055267],[101.421991,3.056005],[101.423726,3.055561],[101.426442,3.052392],[101.429611,3.052241],[101.434741,3.058277],[101.431723,3.061143],[101.432025,3.063105],[101.435194,3.062652],[101.440173,3.058277],[101.441983,3.060691],[101.433081,3.066726],[101.433081,3.068084],[101.437759,3.070347],[101.435495,3.078193],[101.41754,3.078344],[101.416635,3.080004],[101.411806,3.079702],[101.411504,3.081664],[101.409392,3.081966],[101.409392,3.085587],[101.404262,3.083625],[101.396868,3.086945],[101.391889,3.090566],[101.385943,3.093786],[101.378779,3.096385],[101.377726,3.096104],[101.376953,3.094489],[101.3667,3.098],[101.365366,3.100739],[101.364138,3.111195],[101.366177,3.112441],[101.366403,3.118443],[101.367649,3.124218],[101.370706,3.127162],[101.374783,3.131692],[101.374783,3.13792],[101.366969,3.140524],[101.370253,3.150829],[101.383502,3.14596],[101.383615,3.14528],[101.377953,3.139845],[101.378067,3.1369],[101.402186,3.136561],[101.402526,3.154566],[101.408414,3.154452],[101.408754,3.157736],[101.414076,3.15751],[101.414529,3.156264],[101.430383,3.156604],[101.430383,3.15366],[101.433327,3.15366],[101.432421,3.159661],[101.435252,3.160228],[101.432081,3.18899],[101.432194,3.190462],[101.431888,3.193042],[101.399999,3.19265],[101.400108,3.186773],[101.369309,3.186773],[101.3692,3.17589],[101.342646,3.175999],[101.342646,3.163048],[101.327519,3.163484],[101.322839,3.157824],[101.314786,3.166313],[101.314677,3.165007],[101.306914,3.164329]]]}},{"type":"Feature","properties":{"code":"N44","name":"Selat Klang","parlimen":"P.109 Kapar"},"geometry":{"type":"MultiPolygon","coordinates":[[[[101.360525,3.051207],[101.359014,3.016169],[101.359228,3.01466],[101.359319,3.013657],[101.359446,3.013053],[101.359718,3.01259],[101.359684,3.011814],[101.359893,3.011048],[101.360204,3.010707],[101.360754,3.008765],[101.361038,3.007949],[101.361463,3.006412],[101.362578,3.004322],[101.363037,3.003291],[101.363444,3.002608],[101.364082,3.001394],[101.364698,3.000596],[101.365115,3.000355],[101.365967,3.000339],[101.366998,3.00064],[101.368521,3.000936],[101.369016,3.000794],[101.369494,3.000938],[101.369987,3.000863],[101.370203,3.001053],[101.370674,3.001031],[101.371429,3.001365],[101.372368,3.001359],[101.373386,3.001667],[101.374041,3.001578],[101.3746,3.002004],[101.37494,3.001777],[101.375492,3.001716],[101.376069,3.00185],[101.376801,3.001858],[101.377327,3.001949],[101.377467,3.00245],[101.377727,3.002476],[101.377775,3.001965],[101.378291,3.002],[101.378289,3.002661],[101.378593,3.002656],[101.378647,3.002042],[101.378998,3.001884],[101.380404,3.001919],[101.380996,3.001981],[101.382453,3.001844],[101.383893,3.001855],[101.385006,3.002016],[101.385937,3.001973],[101.386972,3.001576],[101.387624,3.001204],[101.389051,3.000808],[101.389531,3.000557],[101.389526,2.999862],[101.390037,2.99979],[101.389904,3.000768],[101.391768,3.001513],[101.392514,3.000395],[101.395372,3.001265],[101.393259,3.006235],[101.405686,3.016798],[101.409662,3.013194],[101.418112,3.022639],[101.417615,3.024627],[101.414136,3.024627],[101.414136,3.025497],[101.423331,3.033822],[101.424028,3.039265],[101.425386,3.043791],[101.425688,3.049223],[101.423424,3.049223],[101.422972,3.055259],[101.423726,3.055561],[101.421991,3.056005],[101.419858,3.055267],[101.417971,3.051576],[101.415264,3.048459],[101.412804,3.047228],[101.408292,3.046326],[101.404437,3.043127],[101.401812,3.04083],[101.397628,3.04165],[101.394922,3.043045],[101.391969,3.041732],[101.390656,3.040092],[101.390328,3.037057],[101.388441,3.036729],[101.387539,3.038451],[101.386391,3.038697],[101.384832,3.040666],[101.384914,3.042307],[101.383192,3.044931],[101.379336,3.044603],[101.378516,3.04567],[101.372528,3.04526],[101.370641,3.048295],[101.363013,3.048377],[101.360525,3.051207]]],[[[101.258798,2.918601],[101.259088,2.920069],[101.2592,2.921161],[101.259517,2.922624],[101.259677,2.924365],[101.259705,2.927275],[101.258844,2.938743],[101.2588,2.938918],[101.256433,2.938918],[101.254428,2.937314],[101.253359,2.934151],[101.249705,2.930275],[101.246631,2.928047],[101.244715,2.925597],[101.239503,2.922255],[101.235315,2.92025],[101.235363,2.919862],[101.235326,2.918887],[101.235935,2.917578],[101.236222,2.914667],[101.234478,2.90848],[101.234497,2.907318],[101.234706,2.906123],[101.235148,2.904799],[101.235769,2.904028],[101.236195,2.903948],[101.23749,2.903985],[101.238703,2.904226],[101.24051,2.904805],[101.241792,2.905448],[101.243069,2.905989],[101.243922,2.906214],[101.245966,2.906675],[101.246862,2.906948],[101.24927,2.907757],[101.251715,2.90867],[101.255173,2.910264],[101.255268,2.910571],[101.255651,2.910484],[101.256016,2.910652],[101.256247,2.911416],[101.256197,2.911827],[101.256582,2.91192],[101.257167,2.912983],[101.256861,2.913535],[101.257394,2.913558],[101.257529,2.914012],[101.2576,2.91542],[101.257746,2.915695],[101.257518,2.916144],[101.257811,2.916278],[101.258057,2.916765],[101.258414,2.918108],[101.258798,2.918601]]],[[[101.386944,2.992553],[101.385119,2.992467],[101.381927,2.992204],[101.377459,2.992049],[101.374079,2.992059],[101.372759,2.992113],[101.371472,2.992231],[101.370335,2.992381],[101.36688,2.99297],[101.363807,2.993346],[101.375489,2.987347],[101.379963,2.990081],[101.383566,2.989832],[101.385555,2.986602],[101.3863,2.989335],[101.385927,2.990951],[101.386797,2.991821],[101.386944,2.992553]]],[[[101.255364,2.964915],[101.255166,2.96529],[101.25478,2.965686],[101.254216,2.966056],[101.253524,2.966099],[101.252967,2.965848],[101.251239,2.964711],[101.249286,2.963484],[101.247007,2.961968],[101.244717,2.960564],[101.243638,2.960013],[101.242236,2.95918],[101.238956,2.956778],[101.233441,2.951993],[101.231568,2.949984],[101.230774,2.948784],[101.230345,2.948034],[101.229701,2.945827],[101.229508,2.944745],[101.229476,2.944187],[101.229658,2.942998],[101.229905,2.942291],[101.230205,2.940555],[101.230592,2.938852],[101.230978,2.937641],[101.231257,2.93628],[101.231729,2.934383],[101.231729,2.933933],[101.231492,2.932799],[101.231356,2.929314],[101.231868,2.927205],[101.231976,2.926465],[101.232791,2.924258],[101.233939,2.92234],[101.234073,2.922225],[101.237099,2.922283],[101.237817,2.922383],[101.239606,2.923044],[101.240301,2.923369],[101.240891,2.923781],[101.242897,2.925356],[101.243407,2.925812],[101.24415,2.926245],[101.24447,2.92651],[101.246014,2.92797],[101.246481,2.928694],[101.247324,2.929208],[101.251603,2.933252],[101.251881,2.933582],[101.253038,2.935627],[101.253347,2.936767],[101.253664,2.937389],[101.254329,2.938166],[101.255541,2.939098],[101.2564,2.939473],[101.256762,2.939529],[101.257458,2.939854],[101.258573,2.939821],[101.258505,2.940092],[101.258231,2.951419],[101.258191,2.951709],[101.257585,2.954034],[101.257274,2.955442],[101.256812,2.956971],[101.256754,2.958945],[101.256614,2.95989],[101.255568,2.964417],[101.255364,2.964915]]],[[[101.303888,2.973628],[101.301565,2.97465],[101.297244,2.974427],[101.294838,2.972422],[101.291541,2.969214],[101.290249,2.965784],[101.287041,2.963333],[101.279155,2.959992],[101.277185,2.958657],[101.275165,2.95704],[101.273574,2.955869],[101.269658,2.953362],[101.268105,2.952009],[101.267318,2.951644],[101.266112,2.95086],[101.26348,2.948118],[101.263288,2.94764],[101.263229,2.947161],[101.263215,2.94593],[101.263336,2.94497],[101.263443,2.942811],[101.263449,2.941069],[101.263514,2.939299],[101.263615,2.937973],[101.263557,2.936825],[101.26424,2.928326],[101.264419,2.926535],[101.264398,2.925035],[101.264312,2.923514],[101.264291,2.920583],[101.264323,2.920068],[101.264629,2.918992],[101.264934,2.918654],[101.265685,2.918328],[101.267144,2.917878],[101.267659,2.917792],[101.269047,2.917734],[101.271992,2.917983],[101.272251,2.918392],[101.272531,2.91912],[101.272815,2.919442],[101.273796,2.919764],[101.274918,2.920438],[101.276135,2.921585],[101.276629,2.922421],[101.277337,2.924114],[101.278211,2.925276],[101.278571,2.926294],[101.278828,2.927462],[101.278989,2.927693],[101.280216,2.928673],[101.283193,2.934776],[101.283292,2.935321],[101.283883,2.935891],[101.285582,2.937633],[101.285679,2.938905],[101.286794,2.939977],[101.287942,2.941712],[101.288892,2.943467],[101.289219,2.944311],[101.289632,2.944956],[101.290477,2.945528],[101.29125,2.946883],[101.291384,2.947437],[101.292065,2.948918],[101.292355,2.949748],[101.292564,2.950064],[101.293235,2.950692],[101.294177,2.952842],[101.294985,2.953567],[101.295249,2.954956],[101.295646,2.956257],[101.295995,2.956559],[101.296215,2.957447],[101.297795,2.959797],[101.298237,2.960752],[101.299385,2.962092],[101.299605,2.962483],[101.300034,2.963535],[101.300533,2.965153],[101.300603,2.965635],[101.300968,2.966639],[101.301305,2.967802],[101.301632,2.968373],[101.302365,2.970261],[101.303493,2.972499],[101.303888,2.973628]]],[[[101.271489,2.957207],[101.27119,2.956774],[101.270877,2.955638],[101.274936,2.958206],[101.275851,2.958893],[101.278903,2.960956],[101.279449,2.961594],[101.280224,2.964982],[101.281338,2.967298],[101.281513,2.969051],[101.280387,2.9688],[101.278807,2.96773],[101.278265,2.967242],[101.277382,2.965785],[101.275903,2.962798],[101.271489,2.957207]]],[[[101.280188,2.96192],[101.281383,2.96213],[101.287531,2.964759],[101.289179,2.96614],[101.290249,2.968769],[101.291808,2.971219],[101.295417,2.974694],[101.297427,2.975554],[101.298758,2.976075],[101.302902,2.975585],[101.303708,2.975331],[101.304099,2.975438],[101.305135,2.976437],[101.305638,2.977063],[101.306172,2.977931],[101.305752,2.978811],[101.305393,2.979192],[101.304411,2.979985],[101.303941,2.980281],[101.301945,2.980384],[101.301202,2.980128],[101.299671,2.979299],[101.297867,2.978163],[101.296225,2.977172],[101.294793,2.976406],[101.294122,2.976109],[101.293433,2.975923],[101.293056,2.975719],[101.292592,2.975893],[101.291513,2.975941],[101.290031,2.975379],[101.289622,2.975072],[101.287486,2.972645],[101.28615,2.971085],[101.285201,2.97047],[101.283608,2.969565],[101.283093,2.969227],[101.282487,2.96852],[101.282252,2.967815],[101.281962,2.966274],[101.28132,2.965487],[101.280824,2.964347],[101.280336,2.962617],[101.280188,2.96192]]],[[[101.30016,2.9808],[101.301026,2.980992],[101.3018,2.981271],[101.302902,2.981778],[101.307357,2.98454],[101.309941,2.986501],[101.312087,2.98658],[101.3134,2.987136],[101.324376,2.992827],[101.328564,2.994253],[101.328932,2.994219],[101.329547,2.994555],[101.331292,2.995713],[101.332053,2.996103],[101.335979,2.998529],[101.336587,2.999215],[101.337524,3.001044],[101.337574,3.001311],[101.337258,3.003299],[101.33692,3.006749],[101.336845,3.006925],[101.334785,3.008688],[101.333996,3.008972],[101.333315,3.009004],[101.332397,3.008779],[101.330246,3.008324],[101.328868,3.008356],[101.327607,3.008645],[101.326765,3.008983],[101.324979,3.00999],[101.323873,3.010482],[101.322264,3.010932],[101.321036,3.011152],[101.319984,3.011206],[101.317034,3.011243],[101.315961,3.011232],[101.314024,3.011034],[101.312705,3.010697],[101.311916,3.010333],[101.309921,3.009491],[101.30873,3.008881],[101.30726,3.007863],[101.304277,3.005966],[101.303644,3.005602],[101.302872,3.005334],[101.30211,3.005216],[101.299835,3.005216],[101.298644,3.005088],[101.296509,3.004542],[101.295544,3.004188],[101.291445,3.001799],[101.290705,3.001402],[101.289911,3.001059],[101.28828,3.000781],[101.28725,3.000845],[101.286521,3.001017],[101.285963,3.001306],[101.285716,3.001617],[101.285427,3.002302],[101.285191,3.003138],[101.284772,3.005034],[101.284547,3.007616],[101.284407,3.008281],[101.284059,3.009044],[101.283334,3.009395],[101.282914,3.009154],[101.282364,3.007772],[101.281908,3.006824],[101.281108,3.00542],[101.280084,3.003856],[101.27819,3.001917],[101.277482,3.00084],[101.276962,2.999822],[101.276803,2.998791],[101.276884,2.998483],[101.275948,2.997545],[101.27502,2.99596],[101.273839,2.993784],[101.27267,2.991717],[101.271844,2.990377],[101.270717,2.988717],[101.270417,2.988224],[101.269494,2.986992],[101.267874,2.984517],[101.265128,2.980488],[101.264532,2.979701],[101.264291,2.979192],[101.264103,2.978484],[101.263357,2.976026],[101.263143,2.974943],[101.262708,2.973315],[101.262419,2.97196],[101.26236,2.971349],[101.262201,2.964942],[101.262122,2.964533],[101.262188,2.963672],[101.26215,2.961861],[101.261405,2.959049],[101.261195,2.957956],[101.261228,2.956852],[101.261445,2.9556],[101.262244,2.953177],[101.262609,2.952573],[101.26423,2.952819],[101.269735,2.955483],[101.271351,2.958026],[101.274492,2.962149],[101.275748,2.96403],[101.278487,2.968947],[101.282844,2.970192],[101.28517,2.971887],[101.28909,2.976164],[101.29515,2.978214],[101.298661,2.979828],[101.299674,2.980376],[101.30016,2.9808]]],[[[101.250198,3.01539],[101.249975,3.015399],[101.244503,3.014157],[101.232639,3.008807],[101.222942,3.003902],[101.222573,3.003605],[101.224372,3.002243],[101.224724,3.000586],[101.225542,2.995873],[101.220797,2.99659],[101.218608,2.994524],[101.219369,2.993155],[101.217754,2.991881],[101.217747,2.989583],[101.218387,2.987165],[101.218854,2.986196],[101.218188,2.986212],[101.216209,2.980642],[101.203682,2.964221],[101.198982,2.956862],[101.197919,2.951219],[101.200143,2.949322],[101.200262,2.94929],[101.204153,2.949974],[101.205824,2.95056],[101.206116,2.9506],[101.208475,2.951768],[101.211296,2.951476],[101.212985,2.951918],[101.214566,2.953127],[101.222009,2.961428],[101.222081,2.961872],[101.222494,2.962126],[101.22303,2.962734],[101.223666,2.963608],[101.224184,2.964158],[101.225498,2.965846],[101.225672,2.966313],[101.226236,2.9671],[101.226842,2.968084],[101.227974,2.969171],[101.228851,2.970312],[101.229459,2.970935],[101.230864,2.97274],[101.231383,2.973626],[101.231815,2.974196],[101.232091,2.974743],[101.232658,2.975359],[101.233124,2.97606],[101.233694,2.976505],[101.234157,2.97697],[101.234789,2.978087],[101.235858,2.979316],[101.236845,2.980527],[101.238104,2.982334],[101.23823,2.982822],[101.238941,2.983315],[101.239484,2.984028],[101.239843,2.984355],[101.24001,2.98489],[101.240345,2.984922],[101.242857,2.988105],[101.247963,2.991629],[101.250657,2.993635],[101.251947,2.994642],[101.25368,2.995638],[101.254042,2.996043],[101.255627,2.997036],[101.257328,2.998327],[101.257467,2.998536],[101.258293,2.999114],[101.259142,2.999607],[101.262549,3.003117],[101.262673,3.003567],[101.261993,3.009435],[101.26167,3.011042],[101.259872,3.016458],[101.257148,3.014814],[101.250198,3.01539]]],[[[101.267762,3.020195],[101.266007,3.019235],[101.263948,3.017474],[101.263102,3.01647],[101.262837,3.012901],[101.26297,3.012498],[101.264195,3.010699],[101.264571,3.006235],[101.26633,3.006838],[101.267082,3.007993],[101.269683,3.013893],[101.269825,3.014454],[101.269997,3.020206],[101.2693,3.02109],[101.267762,3.020195]]],[[[101.239462,3.01813],[101.239746,3.018612],[101.239982,3.01844],[101.239763,3.018142],[101.239727,3.017713],[101.239861,3.017167],[101.239935,3.015793],[101.240357,3.015673],[101.241817,3.016196],[101.242437,3.016485],[101.243316,3.017203],[101.24345,3.016983],[101.244314,3.017313],[101.244886,3.017396],[101.246012,3.018047],[101.246805,3.018144],[101.247025,3.018093],[101.247143,3.018924],[101.247058,3.019305],[101.246718,3.020041],[101.246329,3.021147],[101.246677,3.020938],[101.247492,3.019146],[101.247459,3.018255],[101.247578,3.018101],[101.248278,3.018191],[101.248159,3.018747],[101.248228,3.019123],[101.248527,3.019123],[101.248939,3.018407],[101.249158,3.018485],[101.249231,3.019084],[101.249449,3.019447],[101.249422,3.019858],[101.249048,3.020872],[101.248836,3.022072],[101.248758,3.023433],[101.249033,3.023084],[101.24902,3.022487],[101.249276,3.020942],[101.249621,3.020211],[101.249803,3.019228],[101.250172,3.019268],[101.250726,3.019169],[101.250936,3.018953],[101.252657,3.019752],[101.25261,3.020102],[101.25231,3.020513],[101.252008,3.021252],[101.251989,3.022325],[101.251835,3.023444],[101.25191,3.024831],[101.252094,3.025349],[101.25233,3.02519],[101.252195,3.024804],[101.252119,3.023918],[101.252288,3.021866],[101.252254,3.021401],[101.25237,3.020937],[101.252818,3.020184],[101.252889,3.01986],[101.256053,3.021328],[101.259698,3.02065],[101.262664,3.023666],[101.263302,3.024405],[101.264413,3.025597],[101.265133,3.026099],[101.265423,3.026564],[101.265183,3.026831],[101.265287,3.027115],[101.265772,3.027206],[101.26584,3.027441],[101.266506,3.027102],[101.267435,3.02745],[101.272301,3.030423],[101.272979,3.030956],[101.273331,3.031052],[101.273608,3.032266],[101.273816,3.032702],[101.274648,3.033371],[101.276404,3.03463],[101.277165,3.035111],[101.277595,3.035537],[101.277782,3.035864],[101.278211,3.036962],[101.27941,3.039131],[101.279681,3.039721],[101.28029,3.041731],[101.280336,3.042163],[101.280535,3.042568],[101.277223,3.045831],[101.276843,3.046122],[101.276071,3.047033],[101.275202,3.047951],[101.274977,3.048592],[101.274427,3.048846],[101.274376,3.049221],[101.273821,3.049741],[101.273878,3.050103],[101.272974,3.051346],[101.272705,3.051605],[101.272414,3.052116],[101.271844,3.05247],[101.271597,3.052979],[101.271128,3.053268],[101.270763,3.053348],[101.270345,3.053255],[101.270049,3.053351],[101.270044,3.053999],[101.2694,3.05408],[101.269052,3.054682],[101.268749,3.055786],[101.268759,3.056879],[101.268706,3.057146],[101.268234,3.057762],[101.267686,3.05818],[101.265503,3.058994],[101.261963,3.059493],[101.260986,3.059734],[101.260552,3.060019],[101.259999,3.060168],[101.259232,3.060178],[101.258084,3.059675],[101.256065,3.059055],[101.253519,3.058002],[101.253176,3.057687],[101.252205,3.057459],[101.242146,3.053299],[101.241535,3.052818],[101.240027,3.0514],[101.239187,3.050021],[101.239164,3.049663],[101.23871,3.049237],[101.237011,3.046447],[101.236548,3.04639],[101.235937,3.046478],[101.235022,3.046181],[101.234358,3.045653],[101.233465,3.044842],[101.234007,3.043243],[101.230058,3.037841],[101.229451,3.037419],[101.229111,3.037053],[101.228899,3.037036],[101.22706,3.035759],[101.222048,3.029714],[101.220238,3.027287],[101.218543,3.025241],[101.21702,3.023259],[101.214748,3.020211],[101.211363,3.014901],[101.210668,3.013466],[101.210293,3.012561],[101.209429,3.010102],[101.209155,3.009041],[101.208941,3.007383],[101.208993,3.007222],[101.210704,3.006919],[101.211033,3.006941],[101.211642,3.006753],[101.211253,3.005313],[101.211308,3.005155],[101.214874,3.004386],[101.216846,3.004582],[101.227669,3.009616],[101.228307,3.010075],[101.229065,3.010283],[101.230525,3.011111],[101.23107,3.011309],[101.232269,3.01195],[101.232511,3.012147],[101.233448,3.012368],[101.235085,3.013065],[101.236647,3.014145],[101.237049,3.014316],[101.237441,3.014315],[101.238096,3.014757],[101.238774,3.015091],[101.238889,3.014892],[101.239338,3.015269],[101.239569,3.015656],[101.239437,3.017752],[101.239462,3.01813]]],[[[101.304435,3.018987],[101.304534,3.018634],[101.305229,3.016943],[101.305924,3.015654],[101.306066,3.015202],[101.306005,3.014327],[101.305779,3.013298],[101.305876,3.012649],[101.306224,3.011441],[101.306713,3.010215],[101.306959,3.009968],[101.309371,3.011232],[101.31043,3.011586],[101.312608,3.012218],[101.314759,3.012941],[101.314952,3.013038],[101.315778,3.01382],[101.316342,3.013723],[101.317597,3.013295],[101.318546,3.013161],[101.319625,3.012856],[101.320515,3.012748],[101.322001,3.01284],[101.322318,3.012797],[101.323702,3.012357],[101.325783,3.011591],[101.327001,3.010868],[101.327339,3.010718],[101.328857,3.01022],[101.329951,3.010156],[101.331089,3.010273],[101.33346,3.010681],[101.334822,3.010734],[101.335702,3.010477],[101.33626,3.010134],[101.336879,3.010037],[101.336817,3.010853],[101.336464,3.012748],[101.336324,3.013831],[101.336277,3.015156],[101.335196,3.01678],[101.336577,3.017973],[101.336608,3.018304],[101.336367,3.019584],[101.336167,3.021211],[101.334407,3.029528],[101.334173,3.03815],[101.335902,3.041896],[101.336238,3.043315],[101.336637,3.044734],[101.336614,3.047467],[101.337801,3.050246],[101.337981,3.054562],[101.336402,3.061718],[101.335949,3.062525],[101.335466,3.063178],[101.334801,3.063757],[101.333883,3.064271],[101.332451,3.064876],[101.33148,3.065476],[101.330407,3.066312],[101.329072,3.067041],[101.325637,3.067978],[101.311258,3.064968],[101.305517,3.062768],[101.30305,3.058195],[101.302873,3.055228],[101.301012,3.053923],[101.300077,3.052331],[101.299591,3.051436],[101.299235,3.050431],[101.29644,3.046298],[101.296307,3.045896],[101.296089,3.044792],[101.296113,3.044065],[101.295716,3.041976],[101.295404,3.041076],[101.294707,3.039501],[101.293999,3.038108],[101.293185,3.036861],[101.291333,3.032281],[101.290909,3.030448],[101.290673,3.02958],[101.290394,3.028841],[101.289772,3.027587],[101.289203,3.026237],[101.288559,3.02433],[101.28768,3.021995],[101.286199,3.017902],[101.285287,3.015513],[101.284217,3.013049],[101.284209,3.012572],[101.284761,3.01194],[101.285647,3.010777],[101.286231,3.009673],[101.286848,3.009352],[101.286647,3.008999],[101.286872,3.0082],[101.286891,3.007603],[101.287229,3.006189],[101.287291,3.005214],[101.287366,3.002878],[101.287696,3.002613],[101.288672,3.002929],[101.289777,3.003374],[101.291215,3.004177],[101.293285,3.005484],[101.293865,3.005565],[101.294809,3.005886],[101.295807,3.006336],[101.296804,3.006663],[101.297765,3.006893],[101.298709,3.007059],[101.299674,3.0073],[101.301456,3.007381],[101.302845,3.007611],[101.304186,3.00804],[101.305597,3.008741],[101.306128,3.009309],[101.306219,3.009797],[101.306171,3.010225],[101.305828,3.011356],[101.305586,3.011977],[101.305409,3.01292],[101.305425,3.013327],[101.305645,3.014838],[101.305557,3.015319],[101.305267,3.016086],[101.304725,3.017187],[101.30425,3.018365],[101.304081,3.019089],[101.303966,3.019999],[101.304194,3.020902],[101.304132,3.021381],[101.303773,3.022054],[101.304213,3.0238],[101.304438,3.023296],[101.304106,3.022292],[101.304081,3.022038],[101.304438,3.021502],[101.3045,3.020974],[101.304323,3.020347],[101.304304,3.019919],[101.304435,3.018987]]]]}},{"type":"Feature","properties":{"code":"N45","name":"Bandar Baru Klang","parlimen":"P.110 Klang"},"geometry":{"type":"Polygon","coordinates":[[[101.44126,3.109324],[101.422635,3.112494],[101.422107,3.111965],[101.422217,3.093282],[101.393096,3.09298],[101.391889,3.090566],[101.396868,3.086945],[101.404262,3.083625],[101.409392,3.085587],[101.409392,3.081966],[101.411504,3.081664],[101.411806,3.079702],[101.416635,3.080004],[101.41754,3.078344],[101.435495,3.078193],[101.437759,3.070347],[101.433081,3.068084],[101.433081,3.066726],[101.441983,3.060691],[101.440173,3.058277],[101.435194,3.062652],[101.432025,3.063105],[101.431723,3.061143],[101.434741,3.058277],[101.429611,3.052241],[101.426442,3.052392],[101.423726,3.055561],[101.422972,3.055259],[101.423424,3.049223],[101.425688,3.049223],[101.425386,3.043791],[101.424028,3.039265],[101.423331,3.033822],[101.435261,3.045379],[101.438119,3.046746],[101.439859,3.047119],[101.44135,3.048486],[101.441847,3.048486],[101.446818,3.045131],[101.452037,3.045379],[101.452752,3.046581],[101.460677,3.046713],[101.464772,3.048826],[101.466225,3.051468],[101.466225,3.053317],[101.466754,3.053582],[101.470188,3.053317],[101.473622,3.054506],[101.474811,3.056091],[101.473932,3.058768],[101.471905,3.064941],[101.466225,3.066262],[101.45645,3.066923],[101.454205,3.068112],[101.450771,3.074056],[101.448393,3.073263],[101.442713,3.09268],[101.441128,3.104172],[101.44126,3.109324]]]}},{"type":"Feature","properties":{"code":"N46","name":"Pelabuhan Klang","parlimen":"P.110 Klang"},"geometry":{"type":"MultiPolygon","coordinates":[[[[101.390037,2.99979],[101.390749,2.998889],[101.391137,2.99902],[101.391765,2.998418],[101.392391,2.997486],[101.393146,2.996238],[101.393099,2.996032],[101.3935,2.99563],[101.39391,2.994371],[101.394243,2.992589],[101.394355,2.991193],[101.394403,2.98901],[101.394611,2.988239],[101.394438,2.986602],[101.394233,2.986566],[101.393923,2.985259],[101.392661,2.98295],[101.392122,2.982312],[101.391074,2.980611],[101.390011,2.979364],[101.389766,2.97923],[101.389313,2.978668],[101.389221,2.978281],[101.38822,2.977631],[101.38789,2.977512],[101.387312,2.977113],[101.38652,2.97639],[101.386023,2.97609],[101.384773,2.975076],[101.383814,2.97453],[101.383453,2.974243],[101.38216,2.973402],[101.381605,2.972989],[101.381339,2.972922],[101.381143,2.972597],[101.380519,2.972289],[101.377931,2.970087],[101.376927,2.969179],[101.374835,2.967218],[101.373803,2.966184],[101.372234,2.96451],[101.371276,2.963447],[101.370498,2.962515],[101.369364,2.961036],[101.36891,2.960361],[101.367784,2.958379],[101.367341,2.957503],[101.366802,2.956022],[101.366488,2.954757],[101.366263,2.953659],[101.366016,2.952186],[101.365871,2.950793],[101.365598,2.948677],[101.365324,2.946957],[101.364868,2.944332],[101.363881,2.940057],[101.363377,2.938257],[101.362481,2.935766],[101.361478,2.933596],[101.361221,2.932857],[101.360899,2.932165],[101.359118,2.92893],[101.358892,2.928458],[101.3582,2.926508],[101.358061,2.925795],[101.353462,2.924838],[101.350744,2.924224],[101.354454,2.916546],[101.35822,2.911912],[101.363724,2.906842],[101.369517,2.903656],[101.374587,2.903656],[101.38038,2.908001],[101.383132,2.912781],[101.386029,2.921761],[101.386029,2.928278],[101.38545,2.932913],[101.386174,2.937113],[101.387767,2.941459],[101.392547,2.94508],[101.399354,2.949425],[101.402975,2.95406],[101.404858,2.958984],[101.405003,2.961881],[101.406161,2.966516],[101.408913,2.973178],[101.410362,2.975785],[101.413693,2.977378],[101.418907,2.977813],[101.425425,2.975496],[101.430784,2.97173],[101.436433,2.96695],[101.438026,2.965067],[101.438605,2.962026],[101.435564,2.958694],[101.428177,2.955798],[101.424266,2.953625],[101.4205,2.950728],[101.4205,2.949859],[101.425135,2.949859],[101.439764,2.94957],[101.443095,2.949714],[101.449323,2.951308],[101.459607,2.951308],[101.468572,2.951568],[101.46206,2.970427],[101.459777,2.973894],[101.451151,2.983874],[101.422481,2.98362],[101.42265,2.991485],[101.426541,2.991654],[101.426963,2.997151],[101.426287,2.997743],[101.424342,2.997997],[101.424342,3.001211],[101.427725,3.003071],[101.427725,3.005016],[101.426794,3.006623],[101.424173,3.007046],[101.424595,3.010852],[101.419647,3.010843],[101.419647,3.008646],[101.418211,3.008646],[101.416268,3.006872],[101.418886,3.003155],[101.419393,3.001297],[101.418211,2.999945],[101.415845,2.999269],[101.413564,2.997495],[101.410185,2.997073],[101.403511,2.994116],[101.400724,2.99758],[101.400724,2.998931],[101.39726,2.997411],[101.395372,3.001265],[101.392514,3.000395],[101.391768,3.001513],[101.389904,3.000768],[101.390037,2.99979]]],[[[101.363807,2.993346],[101.362621,2.993356],[101.361864,2.993431],[101.359273,2.993945],[101.358325,2.994163],[101.3566,2.994667],[101.354736,2.994874],[101.354086,2.994626],[101.353745,2.994611],[101.353607,2.994141],[101.352086,2.993521],[101.349226,2.991971],[101.34826,2.991297],[101.34804,2.991642],[101.347547,2.991465],[101.345835,2.990559],[101.344846,2.990152],[101.342912,2.98944],[101.339283,2.987523],[101.33877,2.987051],[101.337802,2.986285],[101.336603,2.985259],[101.335753,2.984377],[101.333513,2.982288],[101.33092,2.980041],[101.329985,2.979721],[101.328821,2.979572],[101.326741,2.978208],[101.325442,2.977226],[101.325198,2.976642],[101.324795,2.976534],[101.324147,2.975781],[101.322759,2.974869],[101.32138,2.973773],[101.319497,2.971943],[101.317266,2.969602],[101.31636,2.968596],[101.31614,2.968085],[101.315557,2.967068],[101.314371,2.965258],[101.313469,2.964094],[101.30133,2.944583],[101.289977,2.926299],[101.280936,2.905302],[101.280748,2.905146],[101.281851,2.904494],[101.282022,2.903814],[101.281781,2.90349],[101.281443,2.902659],[101.281014,2.90218],[101.280776,2.901716],[101.280137,2.899922],[101.279649,2.898853],[101.279475,2.89866],[101.278351,2.897864],[101.277742,2.896927],[101.277214,2.896498],[101.276683,2.896281],[101.27587,2.896193],[101.275492,2.896037],[101.275041,2.895228],[101.274939,2.894824],[101.274888,2.894004],[101.275057,2.8933],[101.275344,2.893058],[101.275781,2.892927],[101.276227,2.892646],[101.277283,2.891802],[101.277852,2.891446],[101.279097,2.890942],[101.279671,2.890573],[101.280156,2.890133],[101.280709,2.889437],[101.281325,2.888893],[101.281875,2.887955],[101.282715,2.886651],[101.282485,2.886033],[101.284154,2.884424],[101.284347,2.884306],[101.285265,2.884178],[101.285559,2.884323],[101.285497,2.884872],[101.285967,2.885794],[101.286528,2.886418],[101.287155,2.88687],[101.287633,2.887515],[101.288229,2.887575],[101.288764,2.887427],[101.289217,2.887144],[101.29022,2.887198],[101.290768,2.887112],[101.290801,2.887742],[101.291159,2.888372],[101.291601,2.888907],[101.292233,2.888981],[101.292265,2.889269],[101.29358,2.889331],[101.295644,2.891097],[101.296338,2.891868],[101.296734,2.892434],[101.297296,2.892402],[101.297349,2.893059],[101.297048,2.893612],[101.297086,2.893899],[101.297709,2.894518],[101.298039,2.894658],[101.299234,2.89447],[101.299361,2.894909],[101.300366,2.895789],[101.301017,2.89611],[101.301239,2.896766],[101.301652,2.897009],[101.301928,2.897886],[101.302067,2.898117],[101.303342,2.899548],[101.303405,2.899788],[101.303983,2.900363],[101.304123,2.900677],[101.304398,2.900831],[101.304999,2.901832],[101.30552,2.902566],[101.307029,2.904508],[101.308556,2.906699],[101.309569,2.907822],[101.310507,2.908662],[101.31125,2.909461],[101.311168,2.909842],[101.311915,2.910562],[101.313025,2.911261],[101.31362,2.911896],[101.314057,2.912237],[101.315892,2.913193],[101.316951,2.913797],[101.3177,2.914151],[101.318291,2.914315],[101.318899,2.914353],[101.320865,2.914255],[101.321334,2.914308],[101.323009,2.91425],[101.324557,2.914056],[101.325693,2.913713],[101.32619,2.913648],[101.326882,2.913175],[101.327045,2.912923],[101.327866,2.912624],[101.329177,2.911729],[101.330585,2.910572],[101.331647,2.909579],[101.334756,2.9059],[101.33557,2.904699],[101.337097,2.90214],[101.33819,2.899454],[101.338887,2.898034],[101.339612,2.896963],[101.340422,2.896151],[101.340937,2.895803],[101.342133,2.895431],[101.343135,2.895338],[101.344255,2.895362],[101.345015,2.895472],[101.346109,2.895793],[101.347034,2.896168],[101.347804,2.896629],[101.34818,2.897087],[101.34866,2.899145],[101.348335,2.900401],[101.348019,2.901274],[101.347396,2.902624],[101.346302,2.904617],[101.345583,2.905785],[101.344832,2.906868],[101.343352,2.908587],[101.342676,2.909321],[101.339707,2.912043],[101.338904,2.912675],[101.338285,2.913575],[101.337998,2.9138],[101.337628,2.914304],[101.337306,2.914561],[101.336499,2.916104],[101.336102,2.917023],[101.335967,2.91765],[101.335541,2.918697],[101.335321,2.919037],[101.335273,2.919511],[101.335483,2.920254],[101.33537,2.920703],[101.335187,2.921287],[101.335453,2.921684],[101.335278,2.922211],[101.335592,2.923663],[101.335836,2.924336],[101.336287,2.925025],[101.33671,2.925318],[101.336748,2.925893],[101.33766,2.927028],[101.339618,2.928544],[101.340407,2.928978],[101.341249,2.929364],[101.342885,2.930023],[101.344156,2.930424],[101.346533,2.930896],[101.347547,2.931048],[101.348568,2.931292],[101.349389,2.931694],[101.350084,2.932361],[101.350687,2.93306],[101.351068,2.933384],[101.352273,2.934764],[101.353989,2.937239],[101.355325,2.939532],[101.356645,2.942194],[101.357202,2.943496],[101.357612,2.944298],[101.357911,2.944522],[101.358124,2.945468],[101.358658,2.94659],[101.358796,2.947273],[101.359056,2.947908],[101.359383,2.948985],[101.360008,2.950833],[101.361105,2.954685],[101.361746,2.956748],[101.36235,2.958963],[101.362908,2.960822],[101.363656,2.962943],[101.36405,2.96376],[101.364514,2.964542],[101.365299,2.966254],[101.367272,2.969072],[101.37019,2.97331],[101.370903,2.974376],[101.372209,2.976537],[101.373065,2.97756],[101.37479,2.979553],[101.375865,2.980617],[101.377649,2.982143],[101.377903,2.981914],[101.378714,2.982583],[101.379111,2.9828],[101.380141,2.983159],[101.381246,2.983392],[101.382678,2.983772],[101.384593,2.984377],[101.385366,2.98471],[101.386769,2.985421],[101.387833,2.986159],[101.388523,2.986922],[101.389191,2.987856],[101.390086,2.989211],[101.390498,2.990124],[101.39047,2.991008],[101.39009,2.991482],[101.38982,2.99201],[101.38914,2.992539],[101.388799,2.992504],[101.386944,2.992553],[101.386797,2.991821],[101.385927,2.990951],[101.3863,2.989335],[101.385555,2.986602],[101.383566,2.989832],[101.379963,2.990081],[101.375489,2.987347],[101.363807,2.993346]]],[[[101.373806,2.973851],[101.375467,2.974458],[101.377457,2.975493],[101.379545,2.976478],[101.381603,2.978248],[101.383787,2.980666],[101.384182,2.981749],[101.382012,2.981487],[101.379631,2.980546],[101.377736,2.979516],[101.375911,2.978318],[101.374563,2.97684],[101.372886,2.974179],[101.372968,2.973621],[101.373806,2.973851]]]]}},{"type":"Feature","properties":{"code":"N47","name":"Pandamaran","parlimen":"P.110 Klang"},"geometry":{"type":"Polygon","coordinates":[[[101.452037,3.045379],[101.446818,3.045131],[101.441847,3.048486],[101.44135,3.048486],[101.439859,3.047119],[101.438119,3.046746],[101.435261,3.045379],[101.423331,3.033822],[101.414136,3.025497],[101.414136,3.024627],[101.417615,3.024627],[101.418112,3.022639],[101.409662,3.013194],[101.405686,3.016798],[101.393259,3.006235],[101.395372,3.001265],[101.39726,2.997411],[101.400724,2.998931],[101.400724,2.99758],[101.403511,2.994116],[101.410185,2.997073],[101.413564,2.997495],[101.415845,2.999269],[101.418211,2.999945],[101.419393,3.001297],[101.418886,3.003155],[101.416268,3.006872],[101.418211,3.008646],[101.419647,3.008646],[101.419647,3.010843],[101.424595,3.010852],[101.430515,3.010767],[101.430854,3.014911],[101.438719,3.013727],[101.441763,3.024383],[101.441425,3.026074],[101.443455,3.026159],[101.443539,3.028189],[101.442694,3.02895],[101.442863,3.030218],[101.446245,3.030472],[101.447007,3.029373],[101.448952,3.029711],[101.449713,3.030387],[101.448444,3.032671],[101.450136,3.033939],[101.449882,3.035969],[101.451066,3.041382],[101.453603,3.041382],[101.452037,3.045379]]]}},{"type":"Feature","properties":{"code":"N48","name":"Sentosa","parlimen":"P.111 Kota Raja"},"geometry":{"type":"Polygon","coordinates":[[[101.451151,2.983874],[101.446774,2.9888],[101.445267,2.992741],[101.442022,2.999231],[101.442254,3.000738],[101.45848,3.000506],[101.458944,2.997609],[101.486066,2.987409],[101.487109,2.990307],[101.486066,2.991582],[101.489891,3.001665],[101.487921,3.002129],[101.487921,3.002824],[101.496266,3.003404],[101.495918,3.010011],[101.497309,3.010822],[101.495686,3.012792],[101.497541,3.013488],[101.497541,3.015226],[101.496498,3.015226],[101.487109,3.018588],[101.485139,3.022876],[101.487225,3.023803],[101.485718,3.026006],[101.4834,3.025426],[101.482357,3.027281],[101.478996,3.025426],[101.478184,3.026353],[101.477837,3.029483],[101.472969,3.027512],[101.473201,3.025774],[101.470651,3.025078],[101.469376,3.025078],[101.468796,3.023919],[101.460219,3.023224],[101.459987,3.021253],[101.457553,3.021485],[101.454887,3.014531],[101.456046,3.013835],[101.455119,3.010938],[101.439008,3.012097],[101.438719,3.013727],[101.430854,3.014911],[101.430515,3.010767],[101.424595,3.010852],[101.424173,3.007046],[101.426794,3.006623],[101.427725,3.005016],[101.427725,3.003071],[101.424342,3.001211],[101.424342,2.997997],[101.426287,2.997743],[101.426963,2.997151],[101.426541,2.991654],[101.42265,2.991485],[101.422481,2.98362],[101.451151,2.983874]]]}},{"type":"Feature","properties":{"code":"N49","name":"Sungai Kandis","parlimen":"P.111 Kota Raja"},"geometry":{"type":"Polygon","coordinates":[[[101.453603,3.041382],[101.451066,3.041382],[101.449882,3.035969],[101.450136,3.033939],[101.448444,3.032671],[101.449713,3.030387],[101.448952,3.029711],[101.447007,3.029373],[101.446245,3.030472],[101.442863,3.030218],[101.442694,3.02895],[101.443539,3.028189],[101.443455,3.026159],[101.441425,3.026074],[101.441763,3.024383],[101.438719,3.013727],[101.439008,3.012097],[101.455119,3.010938],[101.456046,3.013835],[101.454887,3.014531],[101.457553,3.021485],[101.459987,3.021253],[101.460219,3.023224],[101.468796,3.023919],[101.469376,3.025078],[101.470651,3.025078],[101.473201,3.025774],[101.472969,3.027512],[101.477837,3.029483],[101.478184,3.026353],[101.478996,3.025426],[101.482357,3.027281],[101.4834,3.025426],[101.485718,3.026006],[101.487225,3.023803],[101.485139,3.022876],[101.487109,3.018588],[101.496498,3.015226],[101.497541,3.015226],[101.497541,3.013488],[101.495686,3.012792],[101.497309,3.010822],[101.495918,3.010011],[101.496266,3.003404],[101.487921,3.002824],[101.487921,3.002129],[101.489891,3.001665],[101.486066,2.991582],[101.487109,2.990307],[101.486066,2.987409],[101.458944,2.997609],[101.45848,3.000506],[101.442254,3.000738],[101.442022,2.999231],[101.445267,2.992741],[101.446774,2.9888],[101.451151,2.983874],[101.459777,2.973894],[101.46206,2.970427],[101.468572,2.951568],[101.469164,2.949453],[101.488362,2.949453],[101.503669,2.949453],[101.523543,2.949369],[101.548745,2.964507],[101.549083,2.963408],[101.548999,2.957234],[101.561853,2.964253],[101.55957,2.969497],[101.567773,2.974148],[101.56981,2.975623],[101.564049,2.975386],[101.558973,2.977466],[101.55631,2.980295],[101.540499,2.97264],[101.537087,2.978881],[101.505632,2.979047],[101.502886,2.985538],[101.51204,2.987868],[101.51204,2.988783],[101.510791,2.988783],[101.510625,3.00734],[101.526769,3.015578],[101.52602,3.017575],[101.523856,3.016743],[101.522192,3.01874],[101.523357,3.021403],[101.520777,3.021237],[101.520694,3.02365],[101.524023,3.024649],[101.523711,3.028268],[101.523151,3.028268],[101.522321,3.035877],[101.520522,3.035877],[101.520522,3.033249],[101.518447,3.029237],[101.513881,3.032004],[101.513881,3.033941],[101.509454,3.043625],[101.508763,3.043625],[101.507656,3.040166],[101.495619,3.040305],[101.494236,3.041135],[101.496726,3.045839],[101.496726,3.046945],[101.495066,3.047222],[101.490777,3.044732],[101.487872,3.045285],[101.483444,3.048191],[101.481923,3.048329],[101.479156,3.047222],[101.475974,3.048882],[101.473345,3.047084],[101.472792,3.051511],[101.4721,3.051788],[101.468779,3.048052],[101.466542,3.048147],[101.46409,3.044595],[101.46409,3.039267],[101.462568,3.037745],[101.456986,3.038675],[101.455125,3.039267],[101.453603,3.041382]]]}}]}