{"type":"FeatureCollection","crs":{"type":"name","properties":{"name":"urn:ogc:def:crs:OGC:1.3:CRS84"}},"features":[{"type":"Feature","properties":{"KodDUN":"N48","DUN":"KOTA ALAM SHAH","KodPAR":"P110","Parliament":"KLANG","State":"SELANGOR","GE13_Voter":29507,"2015_Q3_Vo":29754},"geometry":{"type":"MultiPolygon","coordinates":[[[[101.44777873300006,3.04563235899999],[101.44858063800007,3.04539670800005],[101.45021706700005,3.046252445],[101.45061785300005,3.04803164],[101.45170898900002,3.047693551000057],[101.45299389800003,3.046408642000073],[101.45373197800006,3.04478486500005],[101.45394568200003,3.044314717000023],[101.45134691400006,3.043919329000051],[101.45091545000007,3.040900137000012],[101.45050271100006,3.038089689000039],[101.45037649100003,3.037128743999989],[101.45075720500003,3.036081782000055],[101.45204211300003,3.034892051],[101.4499957770001,3.03084696700002],[101.44674027800005,3.030615763000073],[101.4419531990001,3.028467506000026],[101.44198819200008,3.02773303599999],[101.44204679100008,3.026503102000024],[101.44241480400007,3.025157553],[101.44183281400002,3.022818250000021],[101.44098477900009,3.019441793000021],[101.44067615700004,3.018217978000032],[101.44038116800006,3.017044746000062],[101.43987553300008,3.016223831000014],[101.43969707300003,3.014915128000047],[101.43901825400003,3.013495684],[101.43158885000004,3.015213297000024],[101.42140837500003,3.016962551000019],[101.42102804500004,3.017082372000021],[101.418567,3.017857711999979],[101.41812723900006,3.018022623000034],[101.41636819800006,3.019314417999985],[101.41963891500006,3.023079866],[101.41928161000003,3.023437171000035],[101.41928161000003,3.024041841000032],[101.419034245,3.024536571000059],[101.41864957000006,3.024561125],[101.41774244900006,3.024619026000027],[101.41661556300002,3.024921362],[101.415296282,3.024976331000068],[101.41579114300004,3.02558021699999],[101.41873191000005,3.028356988000029],[101.42084982600005,3.030477796000059],[101.42334186400007,3.033218177999989],[101.42501448200005,3.03498194800005],[101.43254909600006,3.043022194000062],[101.43702529600003,3.047798783000042],[101.44202216400002,3.04901230800003],[101.4432928780001,3.048243822000071],[101.44745375200003,3.04572752000003],[101.44777873300006,3.04563235899999]]]]}},{"type":"Feature","properties":{"KodDUN":"N42","DUN":"MERU","KodPAR":"P109","Parliament":"KAPAR","State":"SELANGOR","GE13_Voter":39457,"2015_Q3_Vo":40375},"geometry":{"type":"MultiPolygon","coordinates":[[[[101.47730996200004,3.19266589799999],[101.47898591300007,3.191675564],[101.48233781300004,3.191980282],[101.48363286600005,3.192894437000031],[101.48462320100003,3.191904102000022],[101.48675622900004,3.191751743000049],[101.48751802400007,3.192132641000022],[101.48863737800009,3.191838073999989],[101.48896543600006,3.191751743000049],[101.48873689800007,3.190304331],[101.48937359800003,3.189330554999988],[101.48996781300009,3.188421755000041],[101.49003195000006,3.188323663000061],[101.48980341200009,3.186952430000078],[101.49147936100009,3.185047942000046],[101.49376505100005,3.185489729],[101.49458600500009,3.185648406000042],[101.49478697800004,3.18340415299999],[101.50151973800004,3.183522272000058],[101.50224034600008,3.177982167],[101.49920181200004,3.171686656],[101.47966049800002,3.172122582],[101.47885362900004,3.171685660000034],[101.47796991500007,3.169932510000027],[101.47508824000005,3.167857705000077],[101.47412768200007,3.165398675000027],[101.47355134800009,3.160864839000035],[101.47201445400002,3.159097412000032],[101.47086178400008,3.156907339],[101.47093862900006,3.15529360200003],[101.47251394400007,3.151989281000057],[101.47189918700008,3.15099030100004],[101.47205287600009,3.148761805000012],[101.47163023000009,3.14687911],[101.47178392000006,3.14538064],[101.47109231800005,3.143497946000031],[101.471553386,3.141499985000057],[101.4713663850001,3.139225929000021],[101.46870231600008,3.137967192000071],[101.46580434600006,3.136006800000063],[101.46299160900007,3.135410158000073],[101.45949699700007,3.136262501999984],[101.45745137000006,3.13489875199999],[101.45553234300006,3.13548029500002],[101.45343264300006,3.136061409000038],[101.45263506200007,3.134565945],[101.4528204300001,3.133935691999982],[101.45313598900005,3.132862791999987],[101.454737155,3.132793177000028],[101.45544025500007,3.132762607000033],[101.45564062600003,3.119488032000014],[101.45481963900004,3.119526634000033],[101.45383956100007,3.119572716000055],[101.45385590100004,3.119460700000047],[101.45438617300002,3.115825405000067],[101.45399758200003,3.114759043000055],[101.45221059000005,3.109920496],[101.44461933100004,3.109916827000064],[101.44282182500008,3.110021373000038],[101.44206548400005,3.110065364000031],[101.44206548400005,3.109959379000024],[101.44206549300006,3.106969337000058],[101.44206549500004,3.106356836],[101.44218774700006,3.105790838000046],[101.44495943400005,3.092958456000071],[101.44503543500007,3.092607293000027],[101.44822905400005,3.077851102000071],[101.44839248600006,3.077095989000044],[101.44903909900007,3.074373461000055],[101.45163969100008,3.074962373000048],[101.45235480000007,3.074800592999978],[101.45319226900006,3.074611130000034],[101.45439449400006,3.073258626],[101.45524607100002,3.071204823000077],[101.45664866700004,3.06910092900004],[101.45476321800002,3.063389172000012],[101.45362107700005,3.063496248000031],[101.45372815200007,3.062139954999988],[101.45235785200003,3.060136889000036],[101.45065864800006,3.060862184000024],[101.45140104000004,3.06428860799999],[101.44797461600008,3.064859678000027],[101.44365436000005,3.063942077999989],[101.44254944500008,3.064688357000025],[101.44322283200003,3.066192176000071],[101.44274694000006,3.067738826],[101.43904059700004,3.070587921000031],[101.43575132500007,3.073116408000034],[101.43773637300009,3.073699207000023],[101.43570371800007,3.080014958000045],[101.42348112900002,3.079715542999987],[101.42378119900009,3.088113635000063],[101.42398201800007,3.097571319000054],[101.42398201800007,3.110321062000023],[101.40885401200005,3.110270969000037],[101.40845327100006,3.1293563],[101.40832490800004,3.136842033000051],[101.39874467300004,3.136954742000062],[101.37599317900003,3.136519561000061],[101.38013464600003,3.141673235999989],[101.37452426000003,3.143626853000041],[101.369364708,3.145330006000017],[101.36836285400004,3.142574905000062],[101.36099922100001,3.145079542000043],[101.36009755200008,3.14247472000002],[101.358849106,3.142852786000047],[101.34849261700002,3.146815062],[101.34682873600008,3.147451643000035],[101.34346243400007,3.162346433],[101.34338643700006,3.175195687000041],[101.34338637300004,3.175206501000013],[101.36938162200003,3.175293944000035],[101.37027767500005,3.175296958000048],[101.37020149600002,3.185962097000028],[101.38674352400007,3.186127517000012],[101.40023564600006,3.186262438000033],[101.40067332100004,3.186266815000062],[101.40090186000002,3.191904102000022],[101.40532143600005,3.19199563200005],[101.42665055200004,3.192437359000057],[101.43067896500007,3.192495433],[101.43183076200005,3.192513539000045],[101.46040681800007,3.192323454000077],[101.46618774700003,3.192285],[101.4664318740001,3.192449951000055],[101.46845236200008,3.19381514599998],[101.46900639000005,3.194189489000032],[101.4740342410001,3.19274207799999],[101.47730996200004,3.19266589799999]]]]}},{"type":"Feature","properties":{"KodDUN":"N43","DUN":"SEMENTA","KodPAR":"P109","Parliament":"KAPAR","State":"SELANGOR","GE13_Voter":40406,"2015_Q3_Vo":41453},"geometry":{"type":"MultiPolygon","coordinates":[[[[101.42398201800007,3.097571319000054],[101.42378119900009,3.088113635000063],[101.42348112900002,3.079715542999987],[101.43570371800007,3.080014958000045],[101.43773637300009,3.073699207000023],[101.43575132500007,3.073116408000034],[101.43131946300005,3.071697164000041],[101.42932678000001,3.070558488000041],[101.42575758900003,3.070796434000049],[101.421117639,3.069725677000052],[101.41320593100002,3.073830247000049],[101.41041006500004,3.067822107000031],[101.39869122000007,3.073592300000024],[101.39660919100004,3.07341384000006],[101.39512202800007,3.06877389199999],[101.38935183500008,3.074127679000063],[101.38197550600003,3.069844649000064],[101.37959604500008,3.06692981],[101.37775196300004,3.066810837000018],[101.37549147500003,3.066572890000019],[101.37570008300005,3.05854990000002],[101.38221345200009,3.058363750000026],[101.38302426000007,3.045967606000036],[101.38313934000008,3.044208192000048],[101.38594453200002,3.039332499000042],[101.39102059600002,3.033788904000056],[101.39238915700007,3.033215822000012],[101.39263962100007,3.032314152000023],[101.39404221700003,3.03066109300005],[101.40084105800007,3.025748382000071],[101.40180659200007,3.025050706000035],[101.40280844600004,3.023948667000067],[101.40285853900006,3.021744586000054],[101.40150603500004,3.018638837000011],[101.39990306800006,3.017837353000019],[101.39774908000003,3.016585035000018],[101.39399212500007,3.017286333000077],[101.39068600400009,3.019540506000058],[101.38923331500004,3.020893010000068],[101.3850756190001,3.024349408000039],[101.38257098200006,3.02535126300002],[101.37946523300009,3.025551632999978],[101.37751161500005,3.024649964],[101.37610901900008,3.022746441],[101.37540772100002,3.019390227999979],[101.37640957600004,3.017536796000059],[101.37876393400008,3.014731603000035],[101.38632793700002,3.009772423000063],[101.38833164600007,3.006917137000079],[101.38888266600006,3.00431231500003],[101.38818136800005,3.002659255000027],[101.38771488000005,3.00237122099999],[101.38686471100004,3.002048643000029],[101.38578273500009,3.001638111000015],[101.37689199400008,3.000271796000048],[101.37380497800002,2.99924279099999],[101.36896461400005,2.997629336000049],[101.36434031000002,2.997893582000038],[101.36143360400004,2.999875427000019],[101.35896229700006,3.005388427000037],[101.35737125400001,3.009025097000051],[101.35561008100007,3.01123434800007],[101.35401238600008,3.013238531000037],[101.349791032,3.014896920000071],[101.34511739000003,3.015198445000054],[101.34526815200005,3.025902593000064],[101.34320063200008,3.035152264000038],[101.34786972400008,3.053737159999986],[101.34518247600006,3.069504242],[101.33913550500003,3.080223515000023],[101.32866710300006,3.087737214000067],[101.31651178800004,3.091700904000053],[101.30853889600009,3.093098214000056],[101.30369585800005,3.093946995000023],[101.29784234100002,3.097267583000043],[101.30646760600004,3.109012961000039],[101.30912051400007,3.12227749600004],[101.30861683700005,3.141285282000026],[101.30709700200003,3.163891363000063],[101.30707590700005,3.164205125000029],[101.30703964100005,3.164744543000032],[101.30702070100003,3.165026254000059],[101.30690382500006,3.166764647999987],[101.30818626900002,3.16699338399999],[101.30925784400007,3.16699338399999],[101.31014888600001,3.167343437000029],[101.31245738600003,3.167755180000029],[101.31367625900002,3.168745516000017],[101.31535220900008,3.169202593000012],[101.31573773500008,3.168788859000033],[101.31590024600004,3.168614458],[101.32051087700007,3.163666473000018],[101.32472229500004,3.159146890000013],[101.32491818700002,3.159370117],[101.32799801700006,3.16287968899999],[101.33332808600004,3.162721369000044],[101.33569215200004,3.162651150000041],[101.34334853900002,3.162350900000018],[101.34346243400007,3.162346433],[101.34682873600008,3.147451643000035],[101.34849261700002,3.146815062],[101.358849106,3.142852786000047],[101.36009755200008,3.14247472000002],[101.36099922100001,3.145079542000043],[101.36836285400004,3.142574905000062],[101.369364708,3.145330006000017],[101.37452426000003,3.143626853000041],[101.38013464600003,3.141673235999989],[101.37599317900003,3.136519561000061],[101.39874467300004,3.136954742000062],[101.40832490800004,3.136842033000051],[101.40845327100006,3.1293563],[101.40885401200005,3.110270969000037],[101.42398201800007,3.110321062000023],[101.42398201800007,3.097571319000054]]]]}},{"type":"Feature","properties":{"KodDUN":"N41","DUN":"BATU TIGA","KodPAR":"P108","Parliament":"SHAH ALAM","State":"SELANGOR","GE13_Voter":45005,"2015_Q3_Vo":45436},"geometry":{"type":"MultiPolygon","coordinates":[[[[101.52660754800009,3.056700475000033],[101.5347050540001,3.05929398200004],[101.53752909500007,3.060216118000031],[101.54032713400005,3.060892853],[101.54372469700004,3.061714589000073],[101.54548251800007,3.062953709000049],[101.54822010900001,3.065259049000065],[101.54914224500006,3.066469352000072],[101.55023728100005,3.068371258000028],[101.55113060100004,3.070330797000052],[101.55372410800004,3.072549686000026],[101.55537747300009,3.073819523000029],[101.55747858700006,3.074938994],[101.56067170400009,3.076420198000016],[101.56413927000008,3.077008445000045],[101.56918988200005,3.079079319000076],[101.57268866900004,3.080514035],[101.57268288100002,3.079988697],[101.57267062200003,3.078517707000017],[101.57263157200003,3.073970375000041],[101.57252325600005,3.066586884000059],[101.57244672400007,3.064280613000011],[101.57069184800005,3.063008869000042],[101.56769372700003,3.059082758000042],[101.56476698900009,3.053443435000026],[101.56946897900004,3.044999372000065],[101.57126116900008,3.041440814000056],[101.5741182720001,3.038095912000036],[101.57655544600004,3.037112846000072],[101.57762399300005,3.03110469100005],[101.5750383580001,3.031377641000049],[101.57258451700005,3.02923929500003],[101.57023584200007,3.028748527000037],[101.56729123400001,3.027276222000027],[101.56490750400008,3.027626771],[101.56127545500003,3.030741797000077],[101.56017114600004,3.032949301000033],[101.55569218700002,3.035153789000043],[101.54935890700004,3.037054238000049],[101.54710913400005,3.040001063000013],[101.5456251130001,3.046507858000037],[101.54264530700004,3.045289562000017],[101.54078740000007,3.044062642],[101.53857894400004,3.041468583000042],[101.538228395,3.040206608000064],[101.5372118050001,3.03919001700007],[101.53569331400007,3.0384569],[101.533992401,3.038918106],[101.53221965800006,3.039398790000027],[101.52930832300008,3.039085036000047],[101.52914128400005,3.039146639000022],[101.52857238800003,3.039356445000069],[101.52764182900009,3.038839468000038],[101.52808158300004,3.038039916000062],[101.52841303600006,3.037437274000035],[101.53069160200008,3.03652584800005],[101.53111225900005,3.035544312000039],[101.53037784300004,3.035391048000037],[101.52993995800004,3.035299668],[101.52868788000005,3.035475073],[101.52733817700006,3.035664152],[101.52695281900006,3.03565994399999],[101.52599410300007,3.035648943000031],[101.52564370200007,3.034387500999989],[101.52536326400008,3.031688278000018],[101.52571381200005,3.030671687000011],[101.52550348200002,3.02962004100001],[101.525001881,3.029445752000065],[101.52462711100007,3.029479822999989],[101.52443305600008,3.030659845000061],[101.52387192400005,3.034072008000033],[101.52379803200003,3.034419091000041],[101.52350622700007,3.035789750000052],[101.52336199100006,3.036206577],[101.52206584400001,3.03627744799999],[101.52164744900004,3.035719586000033],[101.52140913300003,3.034224699000044],[101.52126184500005,3.033300801000036],[101.52090370400002,3.032112426],[101.52049063800008,3.030741797000077],[101.51987464100009,3.030117315000018],[101.51941211400005,3.029648420000054],[101.5192493850001,3.029483449000056],[101.5191600040001,3.029549649000045],[101.51603708300009,3.031862600000024],[101.51462497600006,3.034674324000037],[101.51386979400009,3.036178006000031],[101.51207588400004,3.039749943000026],[101.51179544500003,3.041222247000031],[101.51164027600005,3.041633993000057],[101.51136541100004,3.042222658000032],[101.51129475600005,3.042290003000063],[101.51096041000002,3.042608686000057],[101.51050000400006,3.042309304000034],[101.50972879700001,3.041678317000054],[101.50906275500007,3.040135902999983],[101.50796022400002,3.039646047000038],[101.50452287300004,3.039844010000028],[101.50415206300003,3.039865364999987],[101.50390113700004,3.039879816000012],[101.50266908100005,3.039950772000054],[101.50248826800001,3.039960173000022],[101.50188646600009,3.039991463000041],[101.5008383300001,3.040045959],[101.49981510900005,3.040281947000023],[101.49927826700007,3.040229082000022],[101.49828068400008,3.040130844000037],[101.49709919700005,3.040188359000066],[101.49640894800002,3.040423414000038],[101.49639004400005,3.040429056000045],[101.49591317100005,3.040705181000027],[101.49586007800008,3.040735924000021],[101.49586360400009,3.04081173100004],[101.4959177090001,3.041975057000056],[101.49634996200007,3.043271870000031],[101.49685059600002,3.044136603000021],[101.49730091500003,3.04491442500006],[101.49768751400005,3.045401097000019],[101.49789533200003,3.045662708000071],[101.49798178300007,3.046383127000069],[101.49778090000004,3.046526992000049],[101.49741620600004,3.046788173],[101.49675183600003,3.046842858000038],[101.49630430200006,3.04679271],[101.49484142300005,3.04606695100004],[101.49391862200007,3.045633890999989],[101.49279559700007,3.045275189000017],[101.49264684300003,3.045227676],[101.49168184300001,3.045123361000034],[101.49156863200005,3.045111123000022],[101.49129699900003,3.045081760000033],[101.49081439900002,3.045029591000024],[101.48923718600007,3.04520470299999],[101.48814411000005,3.045740374000014],[101.48701310300001,3.04628553500004],[101.4852555130001,3.047133314000058],[101.48381601500007,3.047616377000054],[101.48293347500002,3.047248331000043],[101.48279099300005,3.046374905000044],[101.48310546500007,3.04502873899999],[101.48327725500009,3.043511260000019],[101.48350878300008,3.042345526000044],[101.48417168499999,3.040648594000017],[101.48437340200009,3.039553557],[101.48451750500003,3.037627332000058],[101.48447108000005,3.035810924000025],[101.48425453600001,3.035385178000071],[101.48407402700009,3.035030279000031],[101.48246781100002,3.034310372000051],[101.48111806100006,3.034338677000025],[101.48016710900002,3.034972646000012],[101.47958101800005,3.036072886000035],[101.47885819500006,3.038056038000033],[101.47894966000008,3.040258216000034],[101.47904984600004,3.042176690000034],[101.47968381400007,3.043127643000043],[101.4800584320001,3.043963329000022],[101.48046900400006,3.045151835000028],[101.48023580600007,3.046285602000053],[101.479857,3.047450299000047],[101.47890604700004,3.047997816000025],[101.47777358900002,3.048429717],[101.47637017300008,3.048372434],[101.47553401100004,3.047565084000018],[101.47527418500003,3.046671295000066],[101.47510128500004,3.045086373000057],[101.47518840100005,3.043444628000033],[101.47577480300001,3.041542865000043],[101.47640877100008,3.039727408999985],[101.47612121800006,3.038835995000058],[101.47530395400007,3.038920541000042],[101.47420891700006,3.039612143000023],[101.47359580500004,3.040392478000054],[101.47262708300008,3.041641093000044],[101.4722170740001,3.042614277999989],[101.47154664500006,3.043503069000058],[101.47079845399999,3.044516429000018],[101.47016746700004,3.046146481000046],[101.46919385100009,3.047480298000034],[101.46832294500007,3.04855612300003],[101.46724711900005,3.04870981300004],[101.46685073200008,3.048374553999978],[101.46658208400005,3.048147236999989],[101.46571117800002,3.047122641000042],[101.46461180100003,3.045334024000058],[101.46434615000003,3.044138595],[101.46415105800008,3.043254735000023],[101.46434903100004,3.041382710000052],[101.46438126700008,3.040070164000021],[101.46399431300003,3.039032761000012],[101.46357166800003,3.038571693000042],[101.46309898800006,3.038287720000022],[101.46280322100006,3.038110031],[101.46172739600004,3.037841372000018],[101.46038261400005,3.038033780000029],[101.45853834200008,3.038456427],[101.45698295600005,3.03913284500004],[101.45645765600005,3.039264319999988],[101.45538771100006,3.039532252000076],[101.45421565500003,3.040108587000013],[101.45445101600004,3.041699254],[101.45394568200003,3.044314717000023],[101.45373197800006,3.04478486500005],[101.45299389800003,3.046408642000073],[101.45170898900002,3.047693551000057],[101.45061785300005,3.04803164],[101.45087424900001,3.049175844000014],[101.45462331200007,3.051385667999986],[101.45818889100009,3.05347381500007],[101.45846102900002,3.053569007000023],[101.46066361100007,3.054301459000042],[101.46433930100002,3.055423508],[101.47071777000008,3.057296533000021],[101.47459907500007,3.05843377900004],[101.4751701690001,3.058610024000072],[101.48019127800009,3.060230494000058],[101.48035658200006,3.06028208400001],[101.48753203600006,3.062521458],[101.48891524000004,3.063011343000022],[101.49140482200005,3.063563141000037],[101.49800986000008,3.062180193000035],[101.49761789900002,3.052089795000028],[101.50159460900002,3.051743994000012],[101.50211331100006,3.051715177000045],[101.505456054,3.051340559000036],[101.50678162400006,3.051311743000035],[101.50966330000004,3.051599910000014],[101.51266024100002,3.052205062000046],[101.51312130900004,3.049553921],[101.51315012600006,3.048602968000031],[101.51309249200006,3.046989230000022],[101.51412989600003,3.045692477000027],[101.51502321400005,3.044251639],[101.51562836600002,3.043646488],[101.51709802000006,3.042926069000028],[101.51845240700003,3.042926069000028],[101.51960507800005,3.043243052999988],[101.52055603000005,3.043531220999984],[101.52211213500004,3.044395723],[101.52343770500005,3.045173776000063],[101.52571422800006,3.04678751299999],[101.52297663700006,3.055749522000037],[101.52660754800009,3.056700475000033]]]]}},{"type":"Feature","properties":{"KodDUN":"N44","DUN":"SUNGAI PINANG","KodPAR":"P109","Parliament":"KAPAR","State":"SELANGOR","GE13_Voter":27404,"2015_Q3_Vo":27309},"geometry":{"type":"MultiPolygon","coordinates":[[[[101.44365436000005,3.063942077999989],[101.44797461600008,3.064859678000027],[101.45140104000004,3.06428860799999],[101.45065864800006,3.060862184000024],[101.45235785200003,3.060136889000036],[101.45372815200007,3.062139954999988],[101.45362107700005,3.063496248000031],[101.45476321800002,3.063389172000012],[101.45664866700004,3.06910092900004],[101.459242536,3.068269196000079],[101.45994860100004,3.068042795000055],[101.45985557400006,3.067599198999988],[101.45996795300003,3.066225520000052],[101.46003270500003,3.06522988800003],[101.45862850000006,3.064253701],[101.45726536000005,3.063309388],[101.45805613600004,3.060523197000066],[101.45837192500005,3.059410554000066],[101.45872636100007,3.05816174700004],[101.45883251800005,3.056598298000044],[101.45818889100009,3.05347381500007],[101.45462331200007,3.051385667999986],[101.45087424900001,3.049175844000014],[101.45061785300005,3.04803164],[101.45021706700005,3.046252445],[101.44829108400006,3.047746595000035],[101.44572126600006,3.048888736000015],[101.44438103000006,3.04971349800003],[101.44200930700003,3.051173019],[101.4400105600001,3.053647658000017],[101.43922754200008,3.055858534],[101.43839252600009,3.058216224000036],[101.43797745100002,3.058631297999979],[101.4367744940001,3.05983425600004],[101.435346816,3.060024614],[101.43399385900007,3.059010515000024],[101.43091912600002,3.056787285],[101.42877950400003,3.055360870000072],[101.42732555800006,3.05574016000003],[101.42545689800004,3.05651697399999],[101.42363986800004,3.057454796000051],[101.42116522900002,3.057264438000021],[101.41841134200006,3.053769720000044],[101.41640630700006,3.050887483000049],[101.40793542600002,3.046699632000046],[101.40611759400008,3.04512099],[101.40431864500002,3.043558744000058],[101.40165364900007,3.042606959000034],[101.3964188340001,3.043844279],[101.39451526600003,3.043368387000045],[101.39270687500002,3.041179282],[101.39204062600005,3.038514287000015],[101.39203850800004,3.03501916],[101.39238915700007,3.033215822000012],[101.39102059600002,3.033788904000056],[101.38594453200002,3.039332499000042],[101.38313934000008,3.044208192000048],[101.38302426000007,3.045967606000036],[101.38221345200009,3.058363750000026],[101.37570008300005,3.05854990000002],[101.37549147500003,3.066572890000019],[101.37775196300004,3.066810837000018],[101.37959604500008,3.06692981],[101.38197550600003,3.069844649000064],[101.38935183500008,3.074127679000063],[101.39512202800007,3.06877389199999],[101.39660919100004,3.07341384000006],[101.39869122000007,3.073592300000024],[101.41041006500004,3.067822107000031],[101.41320593100002,3.073830247000049],[101.421117639,3.069725677000052],[101.42575758900003,3.070796434000049],[101.42932678000001,3.070558488000041],[101.43131946300005,3.071697164000041],[101.43575132500007,3.073116408000034],[101.43904059700004,3.070587921000031],[101.44274694000006,3.067738826],[101.44322283200003,3.066192176000071],[101.44254944500008,3.064688357000025],[101.44365436000005,3.063942077999989]]]]}},{"type":"Feature","properties":{"KodDUN":"N47","DUN":"PANDAMARAN","KodPAR":"P110","Parliament":"KLANG","State":"SELANGOR","GE13_Voter":27594,"2015_Q3_Vo":27312},"geometry":{"type":"MultiPolygon","coordinates":[[[[101.42022300900004,3.010287398000027],[101.42007429300006,3.007907937000032],[101.41852566300004,3.008039216000041],[101.41707022300005,3.006301801000046],[101.41935748000007,3.00183560200003],[101.41921429700002,2.99989338899999],[101.41580910900008,2.998348452000037],[101.41537188300002,2.997433600000019],[101.41444984200005,2.996422328000011],[101.41043648500003,2.995032327000044],[101.41037493800009,2.996726921000061],[101.41019655500008,2.998861276000067],[101.41072202000004,2.999362946000077],[101.40491613500004,3.005406777000037],[101.40309915300011,3.003324819000062],[101.40263185200007,3.00278936900003],[101.40038578000005,3.001515156000027],[101.39768257300003,2.999981605000079],[101.3995385530001,2.995365451000056],[101.39896748200003,2.995032327000044],[101.39865866100007,2.995739877000054],[101.39683966900004,2.999907421000042],[101.39615862200009,3.001749020000014],[101.39511225000005,3.004578558000052],[101.4033233360001,3.012800571000052],[101.40548412700007,3.014943188000037],[101.40719032500006,3.016623135000026],[101.415296282,3.024976331000068],[101.41661556300002,3.024921362],[101.41774244900006,3.024619026000027],[101.41864957000006,3.024561125],[101.419034245,3.024536571000059],[101.41928161000003,3.024041841000032],[101.41928161000003,3.023437171000035],[101.41963891500006,3.023079866],[101.41636819800006,3.019314417999985],[101.41812723900006,3.018022623000034],[101.418567,3.017857711999979],[101.42102804500004,3.017082372000021],[101.42140837500003,3.016962551000019],[101.43158885000004,3.015213297000024],[101.43116900600008,3.012693033000065],[101.43178308600005,3.010586031000058],[101.42022300900004,3.010287398000027]]]]}},{"type":"Feature","properties":{"KodDUN":"N40","DUN":"KOTA ANGGERIK","KodPAR":"P108","Parliament":"SHAH ALAM","State":"SELANGOR","GE13_Voter":54952,"2015_Q3_Vo":56714},"geometry":{"type":"MultiPolygon","coordinates":[[[[101.52167231900006,3.127377355000022],[101.52528715500004,3.127438732000035],[101.54851522100005,3.127833127000034],[101.55812368900007,3.11293415600002],[101.56036609700006,3.106854740000079],[101.56077212700005,3.103415430000042],[101.56041206100006,3.102358490000029],[101.55765767100006,3.094271390000039],[101.55808067200005,3.093925823000059],[101.55836290100008,3.09369574300007],[101.55537747300009,3.093634186999979],[101.55460346200005,3.092643454],[101.55454154100005,3.08487239099999],[101.5549697580001,3.079210428000035],[101.55505612500006,3.077828618000068],[101.55537747300009,3.073819523000029],[101.55372410800004,3.072549686000026],[101.55113060100004,3.070330797000052],[101.55023728100005,3.068371258000028],[101.54914224500006,3.066469352000072],[101.54822010900001,3.065259049000065],[101.54548251800007,3.062953709000049],[101.54372469700004,3.061714589000073],[101.54032713400005,3.060892853],[101.53752909500007,3.060216118000031],[101.5347050540001,3.05929398200004],[101.52660754800009,3.056700475000033],[101.52297663700006,3.055749522000037],[101.52571422800006,3.04678751299999],[101.52343770500005,3.045173776000063],[101.52211213500004,3.044395723],[101.52055603000005,3.043531220999984],[101.51960507800005,3.043243052999988],[101.51845240700003,3.042926069000028],[101.51709802000006,3.042926069000028],[101.51562836600002,3.043646488],[101.51502321400005,3.044251639],[101.51412989600003,3.045692477000027],[101.51309249200006,3.046989230000022],[101.51315012600006,3.048602968000031],[101.51312130900004,3.049553921],[101.51266024100002,3.052205062000046],[101.50966330000004,3.051599910000014],[101.50678162400006,3.051311743000035],[101.505456054,3.051340559000036],[101.50211331100006,3.051715177000045],[101.50159460900002,3.051743994000012],[101.49761789900002,3.052089795000028],[101.49800986000008,3.062180193000035],[101.49140482200005,3.063563141000037],[101.48891524000004,3.063011343000022],[101.48753203600006,3.062521458],[101.48035658200006,3.06028208400001],[101.48019127800009,3.060230494000058],[101.4751701690001,3.058610024000072],[101.47459907500007,3.05843377900004],[101.47071777000008,3.057296533000021],[101.46433930100002,3.055423508],[101.46066361100007,3.054301459000042],[101.45846102900002,3.053569007000023],[101.45818889100009,3.05347381500007],[101.45883251800005,3.056598298000044],[101.45872636100007,3.05816174700004],[101.45837192500005,3.059410554000066],[101.45805613600004,3.060523197000066],[101.45726536000005,3.063309388],[101.45862850000006,3.064253701],[101.46003270500003,3.06522988800003],[101.45996795300003,3.066225520000052],[101.45985557400006,3.067599198999988],[101.45994860100004,3.068042795000055],[101.459242536,3.068269196000079],[101.45664866700004,3.06910092900004],[101.45524607100002,3.071204823000077],[101.45439449400006,3.073258626],[101.45319226900006,3.074611130000034],[101.45235480000007,3.074800592999978],[101.45163969100008,3.074962373000048],[101.44903909900007,3.074373461000055],[101.44839248600006,3.077095989000044],[101.44822905400005,3.077851102000071],[101.44503543500007,3.092607293000027],[101.44495943400005,3.092958456000071],[101.44218774700006,3.105790838000046],[101.44206549500004,3.106356836],[101.44206549300006,3.106969337000058],[101.44206548400005,3.109959379000024],[101.44206548400005,3.110065364000031],[101.44282182500008,3.110021373000038],[101.44461933100004,3.109916827000064],[101.45221059000005,3.109920496],[101.45399758200003,3.114759043000055],[101.45438617300002,3.115825405000067],[101.45385590100004,3.119460700000047],[101.45383956100007,3.119572716000055],[101.45481963900004,3.119526634000033],[101.45564062600003,3.119488032000014],[101.45544025500007,3.132762607000033],[101.454737155,3.132793177000028],[101.45313598900005,3.132862791999987],[101.4528204300001,3.133935691999982],[101.45263506200007,3.134565945],[101.45343264300006,3.136061409000038],[101.45553234300006,3.13548029500002],[101.45745137000006,3.13489875199999],[101.45949699700007,3.136262501999984],[101.46299160900007,3.135410158000073],[101.46580434600006,3.136006800000063],[101.46870231600008,3.137967192000071],[101.4713663850001,3.139225929000021],[101.471553386,3.141499985000057],[101.47109231800005,3.143497946000031],[101.47178392000006,3.14538064],[101.47163023000009,3.14687911],[101.47205287600009,3.148761805000012],[101.47189918700008,3.15099030100004],[101.47251394400007,3.151989281000057],[101.47093862900006,3.15529360200003],[101.47086178400008,3.156907339],[101.47201445400002,3.159097412000032],[101.47355134800009,3.160864839000035],[101.47412768200007,3.165398675000027],[101.47508824000005,3.167857705000077],[101.47796991500007,3.169932510000027],[101.47885362900004,3.171685660000034],[101.47966049800002,3.172122582],[101.49920181200004,3.171686656],[101.50224034600008,3.177982167],[101.50436212600002,3.179577721000042],[101.50825249700003,3.18240014499999],[101.51368595300006,3.184467220000021],[101.52071400900007,3.189073846000018],[101.52413944700004,3.189546319],[101.5271114480001,3.188365134],[101.52945478400002,3.188306075000074],[101.52961778600006,3.180703530000036],[101.52982400200004,3.169667538000061],[101.52989629700004,3.166007038999981],[101.53018957200005,3.150390152000016],[101.53022725500003,3.148383534000043],[101.52446749600004,3.148807046000055],[101.52167231900006,3.127377355000022]]]]}},{"type":"Feature","properties":{"KodDUN":"N46","DUN":"PELABUHAN KLANG","KodPAR":"P110","Parliament":"KLANG","State":"SELANGOR","GE13_Voter":39972,"2015_Q3_Vo":41061},"geometry":{"type":"MultiPolygon","coordinates":[[[[101.43178308600005,3.010586031000058],[101.43116900600008,3.012693033000065],[101.43158885000004,3.015213297000024],[101.43901825400003,3.013495684],[101.43928278700008,3.01153058199999],[101.43951794100006,3.009783725000033],[101.44130253700008,3.007094934000023],[101.44133273300005,3.00534205900001],[101.44139771500004,3.001569825000046],[101.44182431300004,3.000436095000011],[101.44468137200008,2.992843152000018],[101.45180052000008,2.982556388],[101.45443311200003,2.97891482799999],[101.46209308400003,2.968298279000031],[101.47064216000005,2.951587995000029],[101.46969203400003,2.951600110000067],[101.45213163400005,2.951824015000061],[101.44374057100002,2.949760639000037],[101.43740827300006,2.949769627000018],[101.42258167300007,2.949850647000061],[101.42109632100006,2.949781488],[101.42363002500007,2.954023040000041],[101.42786748300003,2.955945941999985],[101.43641957000003,2.959767525000079],[101.43717982900004,2.960431732000048],[101.43780041300005,2.961288947000066],[101.43776310500007,2.963497578000044],[101.42369582900004,2.97567475900005],[101.42018069700003,2.976681172],[101.41711257500003,2.976236708000042],[101.41535881900006,2.975277553000047],[101.41215910600005,2.97207394500003],[101.40858786700007,2.963660033000036],[101.40317898383778,2.95342501503774],[101.40058498347048,2.950357983612725],[101.38959102876859,2.942386703508279],[101.3877275523798,2.938300452461043],[101.38700501477655,2.935963983468116],[101.38696901479152,2.925452983672107],[101.38627047200002,2.919373433999979],[101.38530436345849,2.916150209848598],[101.38329601469884,2.911423983308873],[101.38162601514465,2.908788014520938],[101.37866390068574,2.905298489858147],[101.3746400148094,2.903875014747114],[101.36671401466596,2.906249983418691],[101.35808498399793,2.913843983073883],[101.35061298341587,2.926154014922747],[101.34782001519638,2.928051983400536],[101.34119695227089,2.925950215932971],[101.33861565511349,2.923401335855057],[101.33813398364595,2.922972014602085],[101.3376700145815,2.921161983156557],[101.3383130151871,2.918167983613685],[101.33928246238432,2.916686719925864],[101.34289554513194,2.91283628595501],[101.34691998323174,2.908265014418237],[101.3496360152388,2.903027983351424],[101.34884298340425,2.897041014897809],[101.34622089446297,2.894676903334235],[101.34316970269442,2.894358501991657],[101.34125226147427,2.894992874510066],[101.33816743000006,2.897537064404264],[101.33403272700005,2.903445852565996],[101.32898014576863,2.908458013242679],[101.32481631400003,2.911394795000037],[101.3185669834335,2.911902014723601],[101.31505362169895,2.908594977317316],[101.30698901455482,2.898635983283728],[101.28402598371636,2.880889014715882],[101.27333169100007,2.878184659000021],[101.26491872200006,2.884521961000081],[101.26630338900007,2.895627773000047],[101.29250661300004,2.939087390000059],[101.29732839000005,2.950073718000058],[101.30151554600008,2.95662776299999],[101.31356337500004,2.975777534000029],[101.32313796400008,2.984579978000051],[101.33474770000001,2.992128131000034],[101.35112801100006,2.994986877000016],[101.35300442100001,2.994986877000016],[101.35694142200005,2.994986877000016],[101.3621986890001,2.994226789999986],[101.36790763000005,2.9934014],[101.36855359400003,2.993427239000014],[101.37781685500003,2.993797769000026],[101.38554717700003,2.997021023000047],[101.39029615200009,2.995386445000061],[101.39222513700008,2.996840174000058],[101.39440072100004,2.998479744000028],[101.39683966900004,2.999907421000042],[101.39865866100007,2.995739877000054],[101.39896748200003,2.995032327000044],[101.3995385530001,2.995365451000056],[101.39768257300003,2.999981605000079],[101.40038578000005,3.001515156000027],[101.40263185200007,3.00278936900003],[101.40309915300011,3.003324819000062],[101.40491613500004,3.005406777000037],[101.41072202000004,2.999362946000077],[101.41019655500008,2.998861276000067],[101.41037493800009,2.996726921000061],[101.41043648500003,2.995032327000044],[101.41444984200005,2.996422328000011],[101.41537188300002,2.997433600000019],[101.41580910900008,2.998348452000037],[101.41921429700002,2.99989338899999],[101.41935748000007,3.00183560200003],[101.41707022300005,3.006301801000046],[101.41852566300004,3.008039216000041],[101.42007429300006,3.007907937000032],[101.42022300900004,3.010287398000027],[101.43178308600005,3.010586031000058]]]]}},{"type":"Feature","properties":{"KodDUN":"N45","DUN":"SELAT KLANG","KodPAR":"P109","Parliament":"KAPAR","State":"SELANGOR","GE13_Voter":36892,"2015_Q3_Vo":36981},"geometry":{"type":"MultiPolygon","coordinates":[[[[101.38987046400007,2.999974264000049],[101.389540229,2.999684191000033],[101.38951837200004,3.000624078000041],[101.38950453800005,3.00121894400004],[101.38811974000004,3.001374905999987],[101.38578273500009,3.001638111000015],[101.38686471100004,3.002048643000029],[101.38771488000005,3.00237122099999],[101.38818136800005,3.002659255000027],[101.38888266600006,3.00431231500003],[101.38833164600007,3.006917137000079],[101.38632793700002,3.009772423000063],[101.37876393400008,3.014731603000035],[101.37640957600004,3.017536796000059],[101.37540772100002,3.019390227999979],[101.37610901900008,3.022746441],[101.37751161500005,3.024649964],[101.37946523300009,3.025551632999978],[101.38257098200006,3.02535126300002],[101.3850756190001,3.024349408000039],[101.38923331500004,3.020893010000068],[101.39068600400009,3.019540506000058],[101.39399212500007,3.017286333000077],[101.39774908000003,3.016585035000018],[101.39990306800006,3.017837353000019],[101.40150603500004,3.018638837000011],[101.40285853900006,3.021744586000054],[101.40280844600004,3.023948667000067],[101.40180659200007,3.025050706000035],[101.40084105800007,3.025748382000071],[101.39404221700003,3.03066109300005],[101.39263962100007,3.032314152000023],[101.39238915700007,3.033215822000012],[101.39203850800004,3.03501916],[101.39204062600005,3.038514287000015],[101.39270687500002,3.041179282],[101.39451526600003,3.043368387000045],[101.3964188340001,3.043844279],[101.40165364900007,3.042606959000034],[101.40431864500002,3.043558744000058],[101.40611759400008,3.04512099],[101.40793542600002,3.046699632000046],[101.41640630700006,3.050887483000049],[101.41841134200006,3.053769720000044],[101.42116522900002,3.057264438000021],[101.42363986800004,3.057454796000051],[101.42545689800004,3.05651697399999],[101.42732555800006,3.05574016000003],[101.42877950400003,3.055360870000072],[101.43091912600002,3.056787285],[101.43399385900007,3.059010515000024],[101.435346816,3.060024614],[101.4367744940001,3.05983425600004],[101.43797745100002,3.058631297999979],[101.43839252600009,3.058216224000036],[101.43922754200008,3.055858534],[101.4400105600001,3.053647658000017],[101.44200930700003,3.051173019],[101.44438103000006,3.04971349800003],[101.44572126600006,3.048888736000015],[101.44829108400006,3.047746595000035],[101.45021706700005,3.046252445],[101.44858063800007,3.04539670800005],[101.44777873300006,3.04563235899999],[101.44745375200003,3.04572752000003],[101.4432928780001,3.048243822000071],[101.44202216400002,3.04901230800003],[101.43702529600003,3.047798783000042],[101.43254909600006,3.043022194000062],[101.42501448200005,3.03498194800005],[101.42334186400007,3.033218177999989],[101.42084982600005,3.030477796000059],[101.41873191000005,3.028356988000029],[101.41579114300004,3.02558021699999],[101.415296282,3.024976331000068],[101.40719032500006,3.016623135000026],[101.40548412700007,3.014943188000037],[101.4033233360001,3.012800571000052],[101.39511225000005,3.004578558000052],[101.38987046400007,2.999974264000049]]],[[[101.29670921400003,2.954705482000071],[101.29280769700006,2.946910892000049],[101.29266684800005,2.946629497000051],[101.29212377300006,2.945544519000034],[101.29105187600003,2.943403032],[101.28506191800003,2.933430744000016],[101.28073838000009,2.924128192000057],[101.27374973200001,2.914819425000073],[101.26209719700006,2.910157012000062],[101.25459255400006,2.906197496000058],[101.25301869000005,2.90599441700004],[101.2509043900001,2.905721604000029],[101.24911979400008,2.905721604000029],[101.24805468300009,2.905062250000059],[101.24662136000008,2.90417495499999],[101.24443719500002,2.903213921999984],[101.24364927600004,2.902859099000024],[101.24361999800003,2.902849943999981],[101.24024536900005,2.900814448000068],[101.23335620500008,2.900327091000064],[101.23268068600001,2.916869169000028],[101.23147556400004,2.930924949000024],[101.22980499100001,2.938405779000039],[101.22980480100004,2.944389597000021],[101.21115669700004,2.950701185000073],[101.20249265600002,2.949700500000057],[101.19749139600002,2.953023317000034],[101.20049011500001,2.962001384000077],[101.21247855900002,2.974637506000025],[101.21647408800006,2.978627583000046],[101.21714428200006,2.983281286000021],[101.21948093700006,2.987934211000011],[101.22080886200008,2.993918585000072],[101.22180427000006,2.998573536000011],[101.22313433100005,3.001898450000019],[101.22846214500004,3.006884619000059],[101.23512048700006,3.009876757000013],[101.23583339400004,3.010171363000044],[101.23798859,3.011061988000013],[101.23878668900004,3.01139179799999],[101.24287631700007,3.013081816000066],[101.24313677800005,3.013189449],[101.24477455700006,3.013866253000057],[101.24510754200008,3.013999266],[101.24567620500005,3.014226422000037],[101.24976797500008,3.015860903000014],[101.25542584100003,3.015862531000018],[101.25812573600008,3.016430201],[101.26175083600006,3.017192401000028],[101.26774487900006,3.022507251999983],[101.273733028,3.026169504000052],[101.29070843100001,3.038472819000047],[101.30036078300009,3.056762931999983],[101.30219673500007,3.059076321],[101.30293069800008,3.060001149000035],[101.30367135100005,3.060934406000023],[101.30612954700007,3.064031839000044],[101.30801766100005,3.066410939],[101.31567499400006,3.069734248000028],[101.32632956000003,3.07040183300004],[101.33298865300009,3.069404974000061],[101.33764926100008,3.064415650000052],[101.33964486700003,3.057428436000024],[101.33831256600004,3.048782573000036],[101.33631506800002,3.034818869000051],[101.33731454900003,3.027506315],[101.33748216400005,3.022816936],[101.33748943500007,3.022613522000018],[101.33753468,3.021347715000052],[101.33764728100006,3.018197455000024],[101.33864575000005,3.008556537000037],[101.33957196700003,3.00269822200003],[101.33964435500009,3.002240365000017],[101.33961745300009,3.001998600999983],[101.33938937100004,2.999948870000024],[101.33931143400007,2.999248465000054],[101.33395349600006,2.996077006000067],[101.33293338000001,2.995473181000016],[101.32133451700007,2.988607575000032],[101.30902050500002,2.977637993000023],[101.30431972300003,2.973986103000041],[101.30303064100006,2.972984654000028],[101.30272647900001,2.971667913999988],[101.30103467500004,2.964343950000022],[101.29905531900003,2.959933341000062],[101.29670921400003,2.954705482000071]]],[[[101.27239757500006,3.03124322600007],[101.27050007600009,3.029815359000017],[101.26963387100004,3.028627824000035],[101.26878341500009,3.027461881000022],[101.26303701700002,3.021287180000022],[101.25780220300001,3.01777747500002],[101.25522315300006,3.016896263000035],[101.25198708600007,3.016991442000056],[101.24856066200006,3.016896047],[101.24637155800006,3.016664721],[101.24256442000004,3.015260063000034],[101.23986445600006,3.013996617000029],[101.23540079500003,3.01218823],[101.23114493800003,3.009895552000044],[101.22688367700002,3.00811949700001],[101.22660060300004,3.008001514000053],[101.22635683800009,3.007899914000061],[101.22544951600005,3.007763073999981],[101.22195624100006,3.007236225000037],[101.22107926000005,3.00710396000005],[101.22065298900009,3.00746233500007],[101.21881120700002,3.009010759000033],[101.21813263300005,3.009581249000042],[101.21845082600007,3.011391053000071],[101.21903721900011,3.014726309000011],[101.21956580100003,3.017732747000026],[101.22052204300007,3.019626796000041],[101.22083950100006,3.02025559],[101.22237992600009,3.023306732000038],[101.22371688600003,3.025954863],[101.22384651000006,3.026211609],[101.22771484800008,3.033873623],[101.22909318500005,3.036603682000022],[101.22946822600004,3.037346521000076],[101.23263331300008,3.043615546000029],[101.23699585900005,3.047536269999988],[101.23875484100004,3.049117104000063],[101.23997305700006,3.050211940000057],[101.24268870300003,3.052652544000028],[101.24336706800005,3.053262202],[101.24404962100004,3.053464825000016],[101.2507505490001,3.05545405099999],[101.25148806200009,3.055870648000046],[101.25330240100004,3.056406026000043],[101.2547051430001,3.057896809000013],[101.25624031100003,3.059528328000037],[101.26199474700009,3.060361138000072],[101.2691185780001,3.058756971000017],[101.272315093,3.055950783000075],[101.27494463800011,3.053035945000025],[101.27630189600008,3.051364436000029],[101.27901279200007,3.047505664000033],[101.27954774100006,3.045626107000013],[101.27967198200007,3.04518958199999],[101.27983102100009,3.044630791000032],[101.27992000100005,3.044318156000026],[101.28045260800008,3.042446822000049],[101.28013137700003,3.04232713600004],[101.27791527000007,3.041501445000052],[101.27728519700007,3.03856202600002],[101.27537190200007,3.036121120000071],[101.27364679200006,3.03326576700001],[101.27239757500006,3.03124322600007]]]]}},{"type":"Feature","properties":{"KodDUN":"N49","DUN":"SERI ANDALAS","KodPAR":"P111","Parliament":"KOTA RAJA","State":"SELANGOR","GE13_Voter":56763,"2015_Q3_Vo":58938},"geometry":{"type":"MultiPolygon","coordinates":[[[[101.46950535900005,2.99450918600003],[101.46568811600007,2.995941563000033],[101.45913339400005,2.998376427000033],[101.45992212900009,3.000532301000019],[101.45717683200006,3.000492321000029],[101.44182431300004,3.000436095000011],[101.44139771500004,3.001569825000046],[101.44133273300005,3.00534205900001],[101.44130253700008,3.007094934000023],[101.43951794100006,3.009783725000033],[101.43928278700008,3.01153058199999],[101.43901825400003,3.013495684],[101.43969707300003,3.014915128000047],[101.43987553300008,3.016223831000014],[101.44038116800006,3.017044746000062],[101.44067615700004,3.018217978000032],[101.44098477900009,3.019441793000021],[101.44183281400002,3.022818250000021],[101.44241480400007,3.025157553],[101.44204679100008,3.026503102000024],[101.44198819200008,3.02773303599999],[101.4419531990001,3.028467506000026],[101.44674027800005,3.030615763000073],[101.4499957770001,3.03084696700002],[101.45204211300003,3.034892051],[101.45075720500003,3.036081782000055],[101.45037649100003,3.037128743999989],[101.45050271100006,3.038089689000039],[101.45091545000007,3.040900137000012],[101.45134691400006,3.043919329000051],[101.45394568200003,3.044314717000023],[101.45445101600004,3.041699254],[101.45421565500003,3.040108587000013],[101.45538771100006,3.039532252000076],[101.45645765600005,3.039264319999988],[101.45698295600005,3.03913284500004],[101.45853834200008,3.038456427],[101.46038261400005,3.038033780000029],[101.46172739600004,3.037841372000018],[101.46280322100006,3.038110031],[101.46309898800006,3.038287720000022],[101.46357166800003,3.038571693000042],[101.46399431300003,3.039032761000012],[101.46438126700008,3.040070164000021],[101.46434903100004,3.041382710000052],[101.46415105800008,3.043254735000023],[101.46434615000003,3.044138595],[101.46461180100003,3.045334024000058],[101.46571117800002,3.047122641000042],[101.46658208400005,3.048147236999989],[101.46685073200008,3.048374553999978],[101.46724711900005,3.04870981300004],[101.46832294500007,3.04855612300003],[101.46919385100009,3.047480298000034],[101.47016746700004,3.046146481000046],[101.47079845399999,3.044516429000018],[101.47154664500006,3.043503069000058],[101.4722170740001,3.042614277999989],[101.47262708300008,3.041641093000044],[101.47359580500004,3.040392478000054],[101.47420891700006,3.039612143000023],[101.47530395400007,3.038920541000042],[101.47612121800006,3.038835995000058],[101.47640877100008,3.039727408999985],[101.47577480300001,3.041542865000043],[101.47518840100005,3.043444628000033],[101.47510128500004,3.045086373000057],[101.47527418500003,3.046671295000066],[101.47553401100004,3.047565084000018],[101.47637017300008,3.048372434],[101.47777358900002,3.048429717],[101.47890604700004,3.047997816000025],[101.479857,3.047450299000047],[101.48023580600007,3.046285602000053],[101.48046900400006,3.045151835000028],[101.4800584320001,3.043963329000022],[101.47968381400007,3.043127643000043],[101.47904984600004,3.042176690000034],[101.47894966000008,3.040258216000034],[101.47885819500006,3.038056038000033],[101.47958101800005,3.036072886000035],[101.48016710900002,3.034972646000012],[101.48111806100006,3.034338677000025],[101.48246781100002,3.034310372000051],[101.48407402700009,3.035030279000031],[101.48425453600001,3.035385178000071],[101.48447108000005,3.035810924000025],[101.48451750500003,3.037627332000058],[101.48437340200009,3.039553557],[101.48417168499999,3.040648594000017],[101.48350878300008,3.042345526000044],[101.48327725500009,3.043511260000019],[101.48310546500007,3.04502873899999],[101.48279099300005,3.046374905000044],[101.48293347500002,3.047248331000043],[101.48381601500007,3.047616377000054],[101.4852555130001,3.047133314000058],[101.48701310300001,3.04628553500004],[101.48814411000005,3.045740374000014],[101.48923718600007,3.04520470299999],[101.49081439900002,3.045029591000024],[101.49129699900003,3.045081760000033],[101.49156863200005,3.045111123000022],[101.49168184300001,3.045123361000034],[101.49264684300003,3.045227676],[101.49279559700007,3.045275189000017],[101.49391862200007,3.045633890999989],[101.49484142300005,3.04606695100004],[101.49630430200006,3.04679271],[101.49675183600003,3.046842858000038],[101.49741620600004,3.046788173],[101.49778090000004,3.046526992000049],[101.49798178300007,3.046383127000069],[101.49789533200003,3.045662708000071],[101.49768751400005,3.045401097000019],[101.49730091500003,3.04491442500006],[101.49685059600002,3.044136603000021],[101.49634996200007,3.043271870000031],[101.4959177090001,3.041975057000056],[101.49586360400009,3.04081173100004],[101.49586007800008,3.040735924000021],[101.49591317100005,3.040705181000027],[101.49639004400005,3.040429056000045],[101.49640894800002,3.040423414000038],[101.49709919700005,3.040188359000066],[101.49828068400008,3.040130844000037],[101.49927826700007,3.040229082000022],[101.49981510900005,3.040281947000023],[101.5008383300001,3.040045959],[101.50188646600009,3.039991463000041],[101.50248826800001,3.039960173000022],[101.50266908100005,3.039950772000054],[101.50390113700004,3.039879816000012],[101.50415206300003,3.039865364999987],[101.50452287300004,3.039844010000028],[101.50796022400002,3.039646047000038],[101.50906275500007,3.040135902999983],[101.50972879700001,3.041678317000054],[101.51050000400006,3.042309304000034],[101.51096041000002,3.042608686000057],[101.51129475600005,3.042290003000063],[101.51136541100004,3.042222658000032],[101.51164027600005,3.041633993000057],[101.51179544500003,3.041222247000031],[101.51207588400004,3.039749943000026],[101.51386979400009,3.036178006000031],[101.51462497600006,3.034674324000037],[101.51603708300009,3.031862600000024],[101.5191600040001,3.029549649000045],[101.5192493850001,3.029483449000056],[101.51941211400005,3.029648420000054],[101.51987464100009,3.030117315000018],[101.52049063800008,3.030741797000077],[101.52090370400002,3.032112426],[101.52126184500005,3.033300801000036],[101.52140913300003,3.034224699000044],[101.52164744900004,3.035719586000033],[101.52206584400001,3.03627744799999],[101.52336199100006,3.036206577],[101.52350622700007,3.035789750000052],[101.52379803200003,3.034419091000041],[101.52387192400005,3.034072008000033],[101.52443305600008,3.030659845000061],[101.52462711100007,3.029479822999989],[101.525001881,3.029445752000065],[101.52464313000007,3.017806555000041],[101.52608038000005,3.014861947],[101.51465249700006,3.00858712900003],[101.51314513700001,3.006133287000067],[101.5132853570001,3.004976477000073],[101.51409161800005,3.003714503000011],[101.49717667700007,3.003687039000015],[101.49728184200005,3.012783973000075],[101.48752782700005,3.012889137000016],[101.48195410500007,3.009103213000023],[101.4806921300001,3.006658137000021],[101.48892125800005,3.00324028799999],[101.49297009400001,3.003844985000063],[101.49002548600002,2.997009288000063],[101.48595036000006,2.987991425000042],[101.46950535900005,2.99450918600003]]]]}}]}